{
"type": "FeatureCollection",
"name": "hotosm_tha_sea_ports_points_geojson",
"features": [
{ "type": "Feature", "properties": { "name": "20号码头", "name:en": null, "amenity": "ferry_terminal", "building": null, "port": null, "operator:type": null, "addr:full": null, "addr:city": null, "source": null, "name:th": null, "osm_id": 7307604885, "osm_type": "nodes" }, "geometry": { "type": "Point", "coordinates": [ 98.4927322, 16.7108066 ] } },
{ "type": "Feature", "properties": { "name": "17号码头", "name:en": null, "amenity": "ferry_terminal", "building": null, "port": null, "operator:type": null, "addr:full": null, "addr:city": null, "source": null, "name:th": null, "osm_id": 12491771566, "osm_type": "nodes" }, "geometry": { "type": "Point", "coordinates": [ 98.5168624, 16.6734669 ] } },
{ "type": "Feature", "properties": { "name": null, "name:en": null, "amenity": "ferry_terminal", "building": null, "port": null, "operator:type": null, "addr:full": null, "addr:city": null, "source": null, "name:th": null, "osm_id": 12522321717, "osm_type": "nodes" }, "geometry": { "type": "Point", "coordinates": [ 98.5187606, 16.677952 ] } },
{ "type": "Feature", "properties": { "name": "18号码头", "name:en": null, "amenity": "ferry_terminal", "building": null, "port": null, "operator:type": null, "addr:full": null, "addr:city": null, "source": null, "name:th": null, "osm_id": 12535451031, "osm_type": "nodes" }, "geometry": { "type": "Point", "coordinates": [ 98.4973689, 16.7166169 ] } },
{ "type": "Feature", "properties": { "name": null, "name:en": null, "amenity": "ferry_terminal", "building": null, "port": null, "operator:type": null, "addr:full": null, "addr:city": null, "source": null, "name:th": null, "osm_id": 12535451036, "osm_type": "nodes" }, "geometry": { "type": "Point", "coordinates": [ 98.4973402, 16.716842 ] } },
{ "type": "Feature", "properties": { "name": "11号码头", "name:en": null, "amenity": "ferry_terminal", "building": null, "port": null, "operator:type": null, "addr:full": null, "addr:city": null, "source": null, "name:th": null, "osm_id": 12535451017, "osm_type": "nodes" }, "geometry": { "type": "Point", "coordinates": [ 98.4985555, 16.6966456 ] } },
{ "type": "Feature", "properties": { "name": null, "name:en": null, "amenity": "ferry_terminal", "building": null, "port": null, "operator:type": null, "addr:full": null, "addr:city": null, "source": null, "name:th": null, "osm_id": 10219050488, "osm_type": "nodes" }, "geometry": { "type": "Point", "coordinates": [ 98.8190218, 8.0334148 ] } },
{ "type": "Feature", "properties": { "name": null, "name:en": null, "amenity": "ferry_terminal", "building": null, "port": null, "operator:type": null, "addr:full": null, "addr:city": null, "source": null, "name:th": null, "osm_id": 9880257213, "osm_type": "nodes" }, "geometry": { "type": "Point", "coordinates": [ 98.5147389, 16.6615197 ] } },
{ "type": "Feature", "properties": { "name": "3号码头", "name:en": null, "amenity": "ferry_terminal", "building": null, "port": null, "operator:type": null, "addr:full": null, "addr:city": null, "source": null, "name:th": null, "osm_id": 9880282619, "osm_type": "nodes" }, "geometry": { "type": "Point", "coordinates": [ 98.5143097, 16.6619364 ] } },
{ "type": "Feature", "properties": { "name": null, "name:en": null, "amenity": "ferry_terminal", "building": null, "port": null, "operator:type": null, "addr:full": null, "addr:city": null, "source": null, "name:th": null, "osm_id": 12522311031, "osm_type": "nodes" }, "geometry": { "type": "Point", "coordinates": [ 98.5147137, 16.66234 ] } },
{ "type": "Feature", "properties": { "name": null, "name:en": null, "amenity": "ferry_terminal", "building": null, "port": null, "operator:type": null, "addr:full": null, "addr:city": null, "source": null, "name:th": null, "osm_id": 12522311067, "osm_type": "nodes" }, "geometry": { "type": "Point", "coordinates": [ 98.5147852, 16.6612638 ] } },
{ "type": "Feature", "properties": { "name": "1号码头", "name:en": null, "amenity": "ferry_terminal", "building": null, "port": null, "operator:type": null, "addr:full": null, "addr:city": null, "source": null, "name:th": null, "osm_id": 12522321718, "osm_type": "nodes" }, "geometry": { "type": "Point", "coordinates": [ 98.5180983, 16.6779232 ] } },
{ "type": "Feature", "properties": { "name": null, "name:en": null, "amenity": "ferry_terminal", "building": null, "port": null, "operator:type": null, "addr:full": null, "addr:city": null, "source": null, "name:th": null, "osm_id": 12535451022, "osm_type": "nodes" }, "geometry": { "type": "Point", "coordinates": [ 98.4990001, 16.6964188 ] } },
{ "type": "Feature", "properties": { "name": "ท่าเรือจุกเสม็ด", "name:en": "Chuksamed Pier", "amenity": "ferry_terminal", "building": null, "port": null, "operator:type": null, "addr:full": null, "addr:city": null, "source": null, "name:th": null, "osm_id": 10752240251, "osm_type": "nodes" }, "geometry": { "type": "Point", "coordinates": [ 100.9136373, 12.6229154 ] } },
{ "type": "Feature", "properties": { "name": null, "name:en": null, "amenity": "ferry_terminal", "building": null, "port": null, "operator:type": null, "addr:full": null, "addr:city": null, "source": null, "name:th": null, "osm_id": 12535451023, "osm_type": "nodes" }, "geometry": { "type": "Point", "coordinates": [ 98.4977324, 16.7043471 ] } },
{ "type": "Feature", "properties": { "name": "12号码头", "name:en": null, "amenity": "ferry_terminal", "building": null, "port": null, "operator:type": null, "addr:full": null, "addr:city": null, "source": null, "name:th": null, "osm_id": 12535477309, "osm_type": "nodes" }, "geometry": { "type": "Point", "coordinates": [ 98.4973519, 16.7043884 ] } },
{ "type": "Feature", "properties": { "name": null, "name:en": "Raja Ferry Lipa Noi Pier", "amenity": "ferry_terminal", "building": null, "port": null, "operator:type": null, "addr:full": null, "addr:city": null, "source": "Bing", "name:th": null, "osm_id": 4703394110, "osm_type": "nodes" }, "geometry": { "type": "Point", "coordinates": [ 99.9254135, 9.4816717 ] } },
{ "type": "Feature", "properties": { "name": "ท่าเรือหน้าบ้าน", "name:en": "Na Baan Pier", "amenity": "ferry_terminal", "building": null, "port": null, "operator:type": null, "addr:full": null, "addr:city": null, "source": null, "name:th": "ท่าเรือหน้าบ้าน", "osm_id": 1228583305, "osm_type": "nodes" }, "geometry": { "type": "Point", "coordinates": [ 100.7901561, 12.9224635 ] } },
{ "type": "Feature", "properties": { "name": null, "name:en": null, "amenity": "ferry_terminal", "building": null, "port": null, "operator:type": null, "addr:full": null, "addr:city": null, "source": null, "name:th": null, "osm_id": 11133849524, "osm_type": "nodes" }, "geometry": { "type": "Point", "coordinates": [ 98.5408968, 16.8117999 ] } },
{ "type": "Feature", "properties": { "name": "23号码头", "name:en": null, "amenity": "ferry_terminal", "building": null, "port": null, "operator:type": null, "addr:full": null, "addr:city": null, "source": null, "name:th": null, "osm_id": 11133849533, "osm_type": "nodes" }, "geometry": { "type": "Point", "coordinates": [ 98.5399142, 16.8123266 ] } },
{ "type": "Feature", "properties": { "name": "ท่าเรือแหลมบาลีฮาย", "name:en": "Pattaya Bali Hai Pier", "amenity": "ferry_terminal", "building": null, "port": null, "operator:type": null, "addr:full": null, "addr:city": null, "source": null, "name:th": "ท่าเรือแหลมบาลีฮาย", "osm_id": 1199397671, "osm_type": "nodes" }, "geometry": { "type": "Point", "coordinates": [ 100.8682968, 12.9288604 ] } },
{ "type": "Feature", "properties": { "name": "ท่าแพขนานยนต์บางปะอิน", "name:en": "Bang Pa-In Ferry Pier", "amenity": "ferry_terminal", "building": null, "port": null, "operator:type": null, "addr:full": null, "addr:city": null, "source": null, "name:th": null, "osm_id": 2398412864, "osm_type": "nodes" }, "geometry": { "type": "Point", "coordinates": [ 100.5739152, 14.223913 ] } },
{ "type": "Feature", "properties": { "name": "ท่าแพขนานยนต์บ้านแป้ง", "name:en": "Ban Pang Ferry Pier", "amenity": "ferry_terminal", "building": null, "port": null, "operator:type": null, "addr:full": null, "addr:city": null, "source": null, "name:th": null, "osm_id": 2398432530, "osm_type": "nodes" }, "geometry": { "type": "Point", "coordinates": [ 100.5723418, 14.2271079 ] } },
{ "type": "Feature", "properties": { "name": null, "name:en": null, "amenity": "ferry_terminal", "building": null, "port": null, "operator:type": null, "addr:full": null, "addr:city": null, "source": null, "name:th": null, "osm_id": 475515464, "osm_type": "nodes" }, "geometry": { "type": "Point", "coordinates": [ 100.4835216, 14.4266517 ] } },
{ "type": "Feature", "properties": { "name": "วัดเทพลีลา", "name:en": "Wat Thepleela", "amenity": "ferry_terminal", "building": null, "port": null, "operator:type": null, "addr:full": null, "addr:city": null, "source": null, "name:th": "วัดเทพลีลา", "osm_id": 566631063, "osm_type": "nodes" }, "geometry": { "type": "Point", "coordinates": [ 100.613781, 13.7599539 ] } },
{ "type": "Feature", "properties": { "name": "ประตูน้ำ", "name:en": "Pratunam", "amenity": "ferry_terminal", "building": null, "port": null, "operator:type": null, "addr:full": null, "addr:city": null, "source": null, "name:th": "ประตูน้ำ", "osm_id": 2321695929, "osm_type": "nodes" }, "geometry": { "type": "Point", "coordinates": [ 100.5414896, 13.7492229 ] } },
{ "type": "Feature", "properties": { "name": "ท่าเรือพระรามที่ 3", "name:en": "Rama III Pier", "amenity": "ferry_terminal", "building": null, "port": null, "operator:type": null, "addr:full": null, "addr:city": null, "source": null, "name:th": null, "osm_id": 4561417666, "osm_type": "nodes" }, "geometry": { "type": "Point", "coordinates": [ 100.538448, 13.6703741 ] } },
{ "type": "Feature", "properties": { "name": "วัดปากบ่อ", "name:en": "Wat Pak Bo", "amenity": "ferry_terminal", "building": null, "port": null, "operator:type": null, "addr:full": null, "addr:city": null, "source": null, "name:th": "วัดปากบ่อ", "osm_id": 7829305346, "osm_type": "nodes" }, "geometry": { "type": "Point", "coordinates": [ 100.6311654, 13.7149859 ] } },
{ "type": "Feature", "properties": { "name": "ชุมชนคลองจวน", "name:en": "Chumchon Khlong Chuan", "amenity": "ferry_terminal", "building": null, "port": null, "operator:type": null, "addr:full": null, "addr:city": null, "source": null, "name:th": "ชุมชนคลองจวน", "osm_id": 7829305347, "osm_type": "nodes" }, "geometry": { "type": "Point", "coordinates": [ 100.6333837, 13.7149393 ] } },
{ "type": "Feature", "properties": { "name": "คอนโดมิเนียม", "name:en": "Condominium", "amenity": "ferry_terminal", "building": null, "port": null, "operator:type": null, "addr:full": null, "addr:city": null, "source": null, "name:th": "คอนโดมิเนียม", "osm_id": 7829305341, "osm_type": "nodes" }, "geometry": { "type": "Point", "coordinates": [ 100.6159774, 13.7122365 ] } },
{ "type": "Feature", "properties": { "name": null, "name:en": "Ferry - 5฿ crossing", "amenity": "ferry_terminal", "building": null, "port": null, "operator:type": null, "addr:full": null, "addr:city": null, "source": null, "name:th": null, "osm_id": 1656008710, "osm_type": "nodes" }, "geometry": { "type": "Point", "coordinates": [ 99.5320083, 14.0115831 ] } },
{ "type": "Feature", "properties": { "name": "Boat To Ko Thalu", "name:en": null, "amenity": "ferry_terminal", "building": null, "port": null, "operator:type": null, "addr:full": null, "addr:city": null, "source": "Gpsmap 62sc Parie 2014", "name:th": null, "osm_id": 2569533740, "osm_type": "nodes" }, "geometry": { "type": "Point", "coordinates": [ 99.559341, 11.1911296 ] } },
{ "type": "Feature", "properties": { "name": null, "name:en": "Ferry - 5฿ crossing", "amenity": "ferry_terminal", "building": null, "port": null, "operator:type": null, "addr:full": null, "addr:city": null, "source": null, "name:th": null, "osm_id": 2607787920, "osm_type": "nodes" }, "geometry": { "type": "Point", "coordinates": [ 99.5304663, 14.0110367 ] } },
{ "type": "Feature", "properties": { "name": null, "name:en": null, "amenity": "ferry_terminal", "building": null, "port": null, "operator:type": null, "addr:full": null, "addr:city": null, "source": null, "name:th": null, "osm_id": 2385137131, "osm_type": "nodes" }, "geometry": { "type": "Point", "coordinates": [ 99.9557409, 13.423805 ] } },
{ "type": "Feature", "properties": { "name": "อู่รถเมล์สาย 9", "name:en": "U Rot Me Sai 9", "amenity": "ferry_terminal", "building": null, "port": null, "operator:type": null, "addr:full": null, "addr:city": null, "source": null, "name:th": "อู่รถเมล์สาย 9", "osm_id": 7829305294, "osm_type": "nodes" }, "geometry": { "type": "Point", "coordinates": [ 100.4662287, 13.7213471 ] } },
{ "type": "Feature", "properties": { "name": "วัดอรุณราชวราราม (Pier 2)", "name:en": "Wat Arun Ratchawararam (Pier 2)", "amenity": "ferry_terminal", "building": null, "port": null, "operator:type": null, "addr:full": null, "addr:city": null, "source": null, "name:th": null, "osm_id": 6463773575, "osm_type": "nodes" }, "geometry": { "type": "Point", "coordinates": [ 100.489838, 13.7440526 ] } },
{ "type": "Feature", "properties": { "name": "ท่าพระจันทร์", "name:en": "Tha Phra Chan", "amenity": "ferry_terminal", "building": null, "port": null, "operator:type": null, "addr:full": null, "addr:city": null, "source": null, "name:th": "ท่าพระจันทร์", "osm_id": 3309041506, "osm_type": "nodes" }, "geometry": { "type": "Point", "coordinates": [ 100.4886763, 13.7565171 ] } },
{ "type": "Feature", "properties": { "name": "ท่าเรือสี่พระยา (ประตู 1)", "name:en": "Si Phraya Pier (Gate 1)", "amenity": "ferry_terminal", "building": null, "port": null, "operator:type": null, "addr:full": null, "addr:city": null, "source": null, "name:th": "ท่าเรือสี่พระยา (ประตู 1)", "osm_id": 3946372581, "osm_type": "nodes" }, "geometry": { "type": "Point", "coordinates": [ 100.5129442, 13.729432 ] } },
{ "type": "Feature", "properties": { "name": "สุเหร่าบ้านดอน", "name:en": "Baan Don Mosque", "amenity": "ferry_terminal", "building": null, "port": null, "operator:type": null, "addr:full": null, "addr:city": null, "source": null, "name:th": "สุเหร่าบ้านดอน", "osm_id": 566630005, "osm_type": "nodes" }, "geometry": { "type": "Point", "coordinates": [ 100.581455, 13.7441488 ] } },
{ "type": "Feature", "properties": { "name": "วัดต้นไทรย์", "name:en": "Wat Ton Sai", "amenity": "ferry_terminal", "building": null, "port": null, "operator:type": null, "addr:full": null, "addr:city": null, "source": null, "name:th": "วัดต้นไทรย์", "osm_id": 7829305345, "osm_type": "nodes" }, "geometry": { "type": "Point", "coordinates": [ 100.6264786, 13.7129727 ] } },
{ "type": "Feature", "properties": { "name": "ท่าเรือแพเจี๊ยบ", "name:en": "Pae Jeab Pier", "amenity": "ferry_terminal", "building": null, "port": null, "operator:type": null, "addr:full": null, "addr:city": null, "source": null, "name:th": null, "osm_id": 7829320700, "osm_type": "nodes" }, "geometry": { "type": "Point", "coordinates": [ 100.559241, 13.7051128 ] } },
{ "type": "Feature", "properties": { "name": "วัดศรีบุญเรือง", "name:en": "Wat Sriboonrueng", "amenity": "ferry_terminal", "building": null, "port": null, "operator:type": null, "addr:full": null, "addr:city": null, "source": null, "name:th": "วัดศรีบุญเรือง", "osm_id": 566631929, "osm_type": "nodes" }, "geometry": { "type": "Point", "coordinates": [ 100.6521088, 13.7677237 ] } },
{ "type": "Feature", "properties": { "name": "นานาเหนือ", "name:en": "Nana Nua", "amenity": "ferry_terminal", "building": null, "port": null, "operator:type": null, "addr:full": null, "addr:city": null, "source": null, "name:th": "นานาเหนือ", "osm_id": 566622818, "osm_type": "nodes" }, "geometry": { "type": "Point", "coordinates": [ 100.554027, 13.7482266 ] } },
{ "type": "Feature", "properties": { "name": "เพชรเกษม 35", "name:en": "Phetchakasem 35", "amenity": "ferry_terminal", "building": null, "port": null, "operator:type": null, "addr:full": null, "addr:city": null, "source": null, "name:th": "เพชรเกษม 35", "osm_id": 7829305300, "osm_type": "nodes" }, "geometry": { "type": "Point", "coordinates": [ 100.4324609, 13.7095775 ] } },
{ "type": "Feature", "properties": { "name": "วัดรางบัว", "name:en": "Wat Rang Bua", "amenity": "ferry_terminal", "building": null, "port": null, "operator:type": null, "addr:full": null, "addr:city": null, "source": null, "name:th": "วัดรางบัว", "osm_id": 7829305298, "osm_type": "nodes" }, "geometry": { "type": "Point", "coordinates": [ 100.4387022, 13.7116659 ] } },
{ "type": "Feature", "properties": { "name": "วัดใต้", "name:en": "Wat Tai", "amenity": "ferry_terminal", "building": null, "port": null, "operator:type": null, "addr:full": null, "addr:city": null, "source": null, "name:th": "วัดใต้", "osm_id": 7829305338, "osm_type": "nodes" }, "geometry": { "type": "Point", "coordinates": [ 100.6029, 13.7135615 ] } },
{ "type": "Feature", "properties": { "name": "ท่าเรือวัดอาวุธวิกสิตาราม", "name:en": "Wat Awut Wikasitaram Pier", "amenity": "ferry_terminal", "building": null, "port": null, "operator:type": null, "addr:full": null, "addr:city": null, "source": null, "name:th": null, "osm_id": 7791237216, "osm_type": "nodes" }, "geometry": { "type": "Point", "coordinates": [ 100.5069843, 13.7894033 ] } },
{ "type": "Feature", "properties": { "name": "วัดเทพากร", "name:en": "Wat Thepakorn", "amenity": "ferry_terminal", "building": null, "port": null, "operator:type": null, "addr:full": null, "addr:city": null, "source": null, "name:th": null, "osm_id": 7791237208, "osm_type": "nodes" }, "geometry": { "type": "Point", "coordinates": [ 100.5034266, 13.7855317 ] } },
{ "type": "Feature", "properties": { "name": "ท่าเรือวัดบวรมงคล", "name:en": "Wat Bowon Mongkhon Pier", "amenity": "ferry_terminal", "building": null, "port": null, "operator:type": null, "addr:full": null, "addr:city": null, "source": null, "name:th": null, "osm_id": 3812958959, "osm_type": "nodes" }, "geometry": { "type": "Point", "coordinates": [ 100.4980775, 13.7742094 ] } },
{ "type": "Feature", "properties": { "name": "ท่าเรือโอเรียนเต็ล", "name:en": "Oriental Pier", "amenity": "ferry_terminal", "building": null, "port": null, "operator:type": null, "addr:full": null, "addr:city": null, "source": null, "name:th": "ท่าเรือโอเรียนเต็ล", "osm_id": 1408521453, "osm_type": "nodes" }, "geometry": { "type": "Point", "coordinates": [ 100.5135187, 13.7233146 ] } },
{ "type": "Feature", "properties": { "name": "ท่าเรือคลองบางลำพู", "name:en": "Kllong Banglamphu", "amenity": "ferry_terminal", "building": null, "port": null, "operator:type": null, "addr:full": null, "addr:city": null, "source": null, "name:th": "ท่าเรือคลองบางลำพู", "osm_id": 5835645103, "osm_type": "nodes" }, "geometry": { "type": "Point", "coordinates": [ 100.4983744, 13.7627136 ] } },
{ "type": "Feature", "properties": { "name": "เพชรเกษม 69", "name:en": "Phetchakasem 69", "amenity": "ferry_terminal", "building": null, "port": null, "operator:type": null, "addr:full": null, "addr:city": null, "source": null, "name:th": "เพชรเกษม 69", "osm_id": 7829305308, "osm_type": "nodes" }, "geometry": { "type": "Point", "coordinates": [ 100.38142, 13.6917591 ] } },
{ "type": "Feature", "properties": { "name": "วัดวรจรรยาวาส", "name:en": "Wat Worachanyawas", "amenity": "ferry_terminal", "building": null, "port": null, "operator:type": null, "addr:full": null, "addr:city": null, "source": null, "name:th": "วัดวรจรรยาวาส", "osm_id": 1408524161, "osm_type": "nodes" }, "geometry": { "type": "Point", "coordinates": [ 100.5068599, 13.7095433 ] } },
{ "type": "Feature", "properties": { "name": "ท่าเรือข้ามฟากวัดมหาชัยคล้ายนิมิตร", "name:en": null, "amenity": "ferry_terminal", "building": null, "port": null, "operator:type": null, "addr:full": null, "addr:city": null, "source": null, "name:th": null, "osm_id": 8093957532, "osm_type": "nodes" }, "geometry": { "type": "Point", "coordinates": [ 100.2776044, 13.5450304 ] } },
{ "type": "Feature", "properties": { "name": "ท่าเรือข้ามฟากมหาชัย", "name:en": null, "amenity": "ferry_terminal", "building": null, "port": null, "operator:type": null, "addr:full": null, "addr:city": null, "source": null, "name:th": null, "osm_id": 1183546146, "osm_type": "nodes" }, "geometry": { "type": "Point", "coordinates": [ 100.2750313, 13.5441369 ] } },
{ "type": "Feature", "properties": { "name": "สาทร (ตากสิน)", "name:en": "Sathorn (Taksin)", "amenity": "ferry_terminal", "building": null, "port": null, "operator:type": null, "addr:full": null, "addr:city": null, "source": null, "name:th": "สาทร (ตากสิน)", "osm_id": 1905838344, "osm_type": "nodes" }, "geometry": { "type": "Point", "coordinates": [ 100.5127108, 13.7188644 ] } },
{ "type": "Feature", "properties": { "name": "ท่าเรือวิบูลย์ศรี", "name:en": "Wibun Si Pier", "amenity": "ferry_terminal", "building": null, "port": null, "operator:type": null, "addr:full": null, "addr:city": null, "source": null, "name:th": "ท่าเรือวิบูลย์ศรี", "osm_id": 247799583, "osm_type": "nodes" }, "geometry": { "type": "Point", "coordinates": [ 100.595749, 13.5950876 ] } },
{ "type": "Feature", "properties": { "name": "ท่าเรือวัดบางกะเจ้านอก", "name:en": "Wat Bang Kachao Nok Pier", "amenity": "ferry_terminal", "building": null, "port": null, "operator:type": null, "addr:full": null, "addr:city": null, "source": null, "name:th": null, "osm_id": 1799590892, "osm_type": "nodes" }, "geometry": { "type": "Point", "coordinates": [ 100.5542208, 13.6890041 ] } },
{ "type": "Feature", "properties": { "name": "ท่าเรือสาธุประดิษฐ์", "name:en": "Sathu Pradit Pier", "amenity": "ferry_terminal", "building": null, "port": null, "operator:type": null, "addr:full": null, "addr:city": null, "source": null, "name:th": null, "osm_id": 2393558026, "osm_type": "nodes" }, "geometry": { "type": "Point", "coordinates": [ 100.5272491, 13.6769773 ] } },
{ "type": "Feature", "properties": { "name": "ท่าเรือวัดบางพึ่ง", "name:en": "Wat Bang Phueng Pier", "amenity": "ferry_terminal", "building": null, "port": null, "operator:type": null, "addr:full": null, "addr:city": null, "source": null, "name:th": null, "osm_id": 7829320711, "osm_type": "nodes" }, "geometry": { "type": "Point", "coordinates": [ 100.5235959, 13.6750474 ] } },
{ "type": "Feature", "properties": { "name": "ท่าเรือตากสิน", "name:en": "Taksin Pier", "amenity": "ferry_terminal", "building": null, "port": null, "operator:type": null, "addr:full": null, "addr:city": null, "source": null, "name:th": "ท่าเรือตากสิน", "osm_id": 3578835663, "osm_type": "nodes" }, "geometry": { "type": "Point", "coordinates": [ 100.5113205, 13.7200153 ] } },
{ "type": "Feature", "properties": { "name": "Songserm Mattaphon Pier", "name:en": null, "amenity": "ferry_terminal", "building": null, "port": null, "operator:type": null, "addr:full": null, "addr:city": null, "source": null, "name:th": "Chumphon Songserm Mattaphon Pier", "osm_id": 4340536631, "osm_type": "nodes" }, "geometry": { "type": "Point", "coordinates": [ 99.2482268, 10.4459235 ] } },
{ "type": "Feature", "properties": { "name": null, "name:en": null, "amenity": "ferry_terminal", "building": null, "port": null, "operator:type": null, "addr:full": null, "addr:city": null, "source": null, "name:th": null, "osm_id": 2631122460, "osm_type": "nodes" }, "geometry": { "type": "Point", "coordinates": [ 99.2463331, 10.441236 ] } },
{ "type": "Feature", "properties": { "name": "Tha Ao Po Pier", "name:en": null, "amenity": "ferry_terminal", "building": null, "port": null, "operator:type": null, "addr:full": null, "addr:city": null, "source": null, "name:th": null, "osm_id": 2281359240, "osm_type": "nodes" }, "geometry": { "type": "Point", "coordinates": [ 98.595669, 8.1430747 ] } },
{ "type": "Feature", "properties": { "name": "Tha Laem Sai Pier", "name:en": null, "amenity": "ferry_terminal", "building": null, "port": null, "operator:type": null, "addr:full": null, "addr:city": null, "source": null, "name:th": null, "osm_id": 2417282449, "osm_type": "nodes" }, "geometry": { "type": "Point", "coordinates": [ 98.6089225, 8.0818045 ] } },
{ "type": "Feature", "properties": { "name": null, "name:en": null, "amenity": "ferry_terminal", "building": null, "port": null, "operator:type": null, "addr:full": null, "addr:city": null, "source": null, "name:th": null, "osm_id": 2457612015, "osm_type": "nodes" }, "geometry": { "type": "Point", "coordinates": [ 98.4710692, 9.8533875 ] } },
{ "type": "Feature", "properties": { "name": "Tha Sapparot Pier", "name:en": null, "amenity": "ferry_terminal", "building": null, "port": null, "operator:type": null, "addr:full": null, "addr:city": null, "source": null, "name:th": null, "osm_id": 2507757433, "osm_type": "nodes" }, "geometry": { "type": "Point", "coordinates": [ 102.2804378, 12.1415548 ] } },
{ "type": "Feature", "properties": { "name": "Surakul Pier", "name:en": null, "amenity": "ferry_terminal", "building": null, "port": null, "operator:type": null, "addr:full": null, "addr:city": null, "source": null, "name:th": "ท่าเรือ สุระกุล", "osm_id": 2328228554, "osm_type": "nodes" }, "geometry": { "type": "Point", "coordinates": [ 98.4591612, 8.3889923 ] } },
{ "type": "Feature", "properties": { "name": "อันดามันพอร์ต", "name:en": "Andaman Port", "amenity": "ferry_terminal", "building": null, "port": null, "operator:type": null, "addr:full": null, "addr:city": null, "source": null, "name:th": "อันดามันพอร์ต", "osm_id": 2713457869, "osm_type": "nodes" }, "geometry": { "type": "Point", "coordinates": [ 99.1958471, 7.674486 ] } },
{ "type": "Feature", "properties": { "name": "Laem Kruat Pier", "name:en": null, "amenity": "ferry_terminal", "building": null, "port": null, "operator:type": null, "addr:full": null, "addr:city": null, "source": null, "name:th": null, "osm_id": 1094544940, "osm_type": "nodes" }, "geometry": { "type": "Point", "coordinates": [ 99.0270494, 7.888348 ] } },
{ "type": "Feature", "properties": { "name": null, "name:en": null, "amenity": "ferry_terminal", "building": null, "port": null, "operator:type": null, "addr:full": null, "addr:city": null, "source": null, "name:th": null, "osm_id": 2503687262, "osm_type": "nodes" }, "geometry": { "type": "Point", "coordinates": [ 99.1191448, 7.53843 ] } },
{ "type": "Feature", "properties": { "name": null, "name:en": null, "amenity": "ferry_terminal", "building": null, "port": null, "operator:type": null, "addr:full": null, "addr:city": null, "source": null, "name:th": null, "osm_id": 4022084618, "osm_type": "nodes" }, "geometry": { "type": "Point", "coordinates": [ 99.1428908, 7.559301 ] } },
{ "type": "Feature", "properties": { "name": "เดอะมอลล์บางกะปิ", "name:en": "The Mall Bangkapi", "amenity": "ferry_terminal", "building": null, "port": null, "operator:type": null, "addr:full": null, "addr:city": null, "source": null, "name:th": "เดอะมอลล์บางกะปิ", "osm_id": 566631808, "osm_type": "nodes" }, "geometry": { "type": "Point", "coordinates": [ 100.6434461, 13.764643 ] } },
{ "type": "Feature", "properties": { "name": "ท่ารถไฟ", "name:en": "Thonburi Railway", "amenity": "ferry_terminal", "building": null, "port": null, "operator:type": null, "addr:full": null, "addr:city": null, "source": null, "name:th": "ท่ารถไฟ", "osm_id": 3053005367, "osm_type": "nodes" }, "geometry": { "type": "Point", "coordinates": [ 100.4878041, 13.759207 ] } },
{ "type": "Feature", "properties": { "name": "ท่าวังหลัง", "name:en": "Tha Wang Lang", "amenity": "ferry_terminal", "building": null, "port": null, "operator:type": null, "addr:full": null, "addr:city": null, "source": null, "name:th": "ท่าวังหลัง", "osm_id": 3309041492, "osm_type": "nodes" }, "geometry": { "type": "Point", "coordinates": [ 100.4868675, 13.7560095 ] } },
{ "type": "Feature", "properties": { "name": "วัดกลาง", "name:en": "Wat Klang", "amenity": "ferry_terminal", "building": null, "port": null, "operator:type": null, "addr:full": null, "addr:city": null, "source": null, "name:th": "วัดกลาง", "osm_id": 2902806579, "osm_type": "nodes" }, "geometry": { "type": "Point", "coordinates": [ 100.633571, 13.7634595 ] } },
{ "type": "Feature", "properties": { "name": "เดอะมอลล์ราม", "name:en": "The Mall Ram", "amenity": "ferry_terminal", "building": null, "port": null, "operator:type": null, "addr:full": null, "addr:city": null, "source": null, "name:th": "เดอะมอลล์ราม", "osm_id": 566630389, "osm_type": "nodes" }, "geometry": { "type": "Point", "coordinates": [ 100.6081306, 13.754653 ] } },
{ "type": "Feature", "properties": { "name": "วัดเทพนารี", "name:en": "Wat Thepnahree", "amenity": "ferry_terminal", "building": null, "port": null, "operator:type": null, "addr:full": null, "addr:city": null, "source": null, "name:th": null, "osm_id": 7791237205, "osm_type": "nodes" }, "geometry": { "type": "Point", "coordinates": [ 100.5023314, 13.7839664 ] } },
{ "type": "Feature", "properties": { "name": "วัดเขียน", "name:en": "Wat Kien", "amenity": "ferry_terminal", "building": null, "port": null, "operator:type": null, "addr:full": null, "addr:city": null, "source": null, "name:th": "วัดเขียน", "osm_id": 1408337602, "osm_type": "nodes" }, "geometry": { "type": "Point", "coordinates": [ 100.496902, 13.8282189 ] } },
{ "type": "Feature", "properties": { "name": "พายัพ", "name:en": "Payap", "amenity": "ferry_terminal", "building": null, "port": null, "operator:type": null, "addr:full": null, "addr:city": null, "source": null, "name:th": "พายัพ", "osm_id": 1408346288, "osm_type": "nodes" }, "geometry": { "type": "Point", "coordinates": [ 100.508141, 13.7875432 ] } },
{ "type": "Feature", "properties": { "name": "สะพานพระราม 5", "name:en": "Rama 5 Bridge", "amenity": "ferry_terminal", "building": null, "port": null, "operator:type": null, "addr:full": null, "addr:city": null, "source": null, "name:th": "สะพานพระราม 5", "osm_id": 1408337592, "osm_type": "nodes" }, "geometry": { "type": "Point", "coordinates": [ 100.4938913, 13.8322091 ] } },
{ "type": "Feature", "properties": { "name": "นนทบุรี", "name:en": "Nonthaburi", "amenity": "ferry_terminal", "building": null, "port": null, "operator:type": null, "addr:full": null, "addr:city": null, "source": null, "name:th": "นนทบุรี", "osm_id": 1408337604, "osm_type": "nodes" }, "geometry": { "type": "Point", "coordinates": [ 100.4911555, 13.8418616 ] } },
{ "type": "Feature", "properties": { "name": "พิบูลสงคราม 1", "name:en": "Pibul 1", "amenity": "ferry_terminal", "building": null, "port": null, "operator:type": null, "addr:full": null, "addr:city": null, "source": null, "name:th": null, "osm_id": 7791237222, "osm_type": "nodes" }, "geometry": { "type": "Point", "coordinates": [ 100.5055923, 13.8176906 ] } },
{ "type": "Feature", "properties": { "name": "วัดเขมา", "name:en": "Wat Khema", "amenity": "ferry_terminal", "building": null, "port": null, "operator:type": null, "addr:full": null, "addr:city": null, "source": null, "name:th": null, "osm_id": 7791237223, "osm_type": "nodes" }, "geometry": { "type": "Point", "coordinates": [ 100.5020832, 13.8218306 ] } },
{ "type": "Feature", "properties": { "name": "พิบูลสงคราม 2", "name:en": "Pibul 2", "amenity": "ferry_terminal", "building": null, "port": null, "operator:type": null, "addr:full": null, "addr:city": null, "source": null, "name:th": "พิบูลสงคราม 2", "osm_id": 1905838343, "osm_type": "nodes" }, "geometry": { "type": "Point", "coordinates": [ 100.49627, 13.8329058 ] } },
{ "type": "Feature", "properties": { "name": "วัดคฤหบดี", "name:en": "Wat Kharuehabodi", "amenity": "ferry_terminal", "building": null, "port": null, "operator:type": null, "addr:full": null, "addr:city": null, "source": null, "name:th": null, "osm_id": 3812958499, "osm_type": "nodes" }, "geometry": { "type": "Point", "coordinates": [ 100.4971703, 13.7718923 ] } },
{ "type": "Feature", "properties": { "name": "สะพานกรุงธน", "name:en": "Krung Thon Bridge", "amenity": "ferry_terminal", "building": null, "port": null, "operator:type": null, "addr:full": null, "addr:city": null, "source": null, "name:th": "สะพานกรุงธน", "osm_id": 1342348755, "osm_type": "nodes" }, "geometry": { "type": "Point", "coordinates": [ 100.5010755, 13.781526 ] } },
{ "type": "Feature", "properties": { "name": "Songserm Nathon Pier", "name:en": null, "amenity": "ferry_terminal", "building": null, "port": null, "operator:type": null, "addr:full": null, "addr:city": null, "source": null, "name:th": null, "osm_id": 3266087659, "osm_type": "nodes" }, "geometry": { "type": "Point", "coordinates": [ 99.93094, 9.5356458 ] } },
{ "type": "Feature", "properties": { "name": "Nightboat Nathon Pier", "name:en": null, "amenity": "ferry_terminal", "building": null, "port": null, "operator:type": null, "addr:full": null, "addr:city": null, "source": null, "name:th": null, "osm_id": 4775993791, "osm_type": "nodes" }, "geometry": { "type": "Point", "coordinates": [ 99.9316284, 9.5363987 ] } },
{ "type": "Feature", "properties": { "name": "Ko Muk", "name:en": null, "amenity": "ferry_terminal", "building": null, "port": null, "operator:type": null, "addr:full": null, "addr:city": null, "source": null, "name:th": null, "osm_id": 620942221, "osm_type": "nodes" }, "geometry": { "type": "Point", "coordinates": [ 99.3104418, 7.3780869 ] } },
{ "type": "Feature", "properties": { "name": null, "name:en": null, "amenity": "ferry_terminal", "building": null, "port": null, "operator:type": null, "addr:full": null, "addr:city": null, "source": null, "name:th": null, "osm_id": 446046060, "osm_type": "nodes" }, "geometry": { "type": "Point", "coordinates": [ 98.2726674, 8.8737596 ] } },
{ "type": "Feature", "properties": { "name": null, "name:en": null, "amenity": "ferry_terminal", "building": null, "port": null, "operator:type": null, "addr:full": null, "addr:city": null, "source": null, "name:th": null, "osm_id": 5148592806, "osm_type": "nodes" }, "geometry": { "type": "Point", "coordinates": [ 98.2726521, 8.8734473 ] } },
{ "type": "Feature", "properties": { "name": "Rawai Pier", "name:en": null, "amenity": "ferry_terminal", "building": null, "port": null, "operator:type": null, "addr:full": null, "addr:city": null, "source": null, "name:th": null, "osm_id": 1562225016, "osm_type": "nodes" }, "geometry": { "type": "Point", "coordinates": [ 98.3286547, 7.7721946 ] } },
{ "type": "Feature", "properties": { "name": null, "name:en": null, "amenity": "ferry_terminal", "building": null, "port": null, "operator:type": null, "addr:full": null, "addr:city": null, "source": null, "name:th": null, "osm_id": 340347055, "osm_type": "nodes" }, "geometry": { "type": "Point", "coordinates": [ 98.8221347, 8.0306527 ] } },
{ "type": "Feature", "properties": { "name": null, "name:en": null, "amenity": "ferry_terminal", "building": null, "port": null, "operator:type": null, "addr:full": null, "addr:city": null, "source": null, "name:th": null, "osm_id": 1656349633, "osm_type": "nodes" }, "geometry": { "type": "Point", "coordinates": [ 100.5021883, 13.932424 ] } },
{ "type": "Feature", "properties": { "name": "ท่าเรือวัดพนัญเชิง", "name:en": "Wat Phananchoeng Ferry Terminal", "amenity": "ferry_terminal", "building": null, "port": null, "operator:type": null, "addr:full": null, "addr:city": null, "source": null, "name:th": null, "osm_id": 1726998494, "osm_type": "nodes" }, "geometry": { "type": "Point", "coordinates": [ 100.5786539, 14.344829 ] } },
{ "type": "Feature", "properties": { "name": "ปากเกร็ด", "name:en": "Pakkret", "amenity": "ferry_terminal", "building": null, "port": null, "operator:type": null, "addr:full": null, "addr:city": null, "source": null, "name:th": null, "osm_id": 1387912487, "osm_type": "nodes" }, "geometry": { "type": "Point", "coordinates": [ 100.4946496, 13.91533 ] } },
{ "type": "Feature", "properties": { "name": "ท่าวัดปรมัยยิกาวาส", "name:en": "Wat Pora Mai Yi Ka Wat Ferry Pier", "amenity": "ferry_terminal", "building": null, "port": null, "operator:type": null, "addr:full": null, "addr:city": null, "source": null, "name:th": "ท่าวัดปรมัยยิกาวาส", "osm_id": 1388321883, "osm_type": "nodes" }, "geometry": { "type": "Point", "coordinates": [ 100.4906939, 13.9126861 ] } },
{ "type": "Feature", "properties": { "name": "วัดกลางเกร็ด", "name:en": "Wat Klangkret", "amenity": "ferry_terminal", "building": null, "port": null, "operator:type": null, "addr:full": null, "addr:city": null, "source": null, "name:th": null, "osm_id": 1645239685, "osm_type": "nodes" }, "geometry": { "type": "Point", "coordinates": [ 100.4913828, 13.9051733 ] } },
{ "type": "Feature", "properties": { "name": "กระทรวงพาณิชย์", "name:en": "Ministry of Commerce", "amenity": "ferry_terminal", "building": null, "port": null, "operator:type": null, "addr:full": null, "addr:city": null, "source": null, "name:th": null, "osm_id": 1645239724, "osm_type": "nodes" }, "geometry": { "type": "Point", "coordinates": [ 100.4851632, 13.8832667 ] } },
{ "type": "Feature", "properties": { "name": null, "name:en": null, "amenity": "ferry_terminal", "building": null, "port": null, "operator:type": null, "addr:full": null, "addr:city": null, "source": null, "name:th": null, "osm_id": 11133849536, "osm_type": "nodes" }, "geometry": { "type": "Point", "coordinates": [ 98.5387017, 16.8119978 ] } },
{ "type": "Feature", "properties": { "name": null, "name:en": null, "amenity": "ferry_terminal", "building": null, "port": null, "operator:type": null, "addr:full": null, "addr:city": null, "source": null, "name:th": null, "osm_id": 9844151229, "osm_type": "nodes" }, "geometry": { "type": "Point", "coordinates": [ 98.5095663, 16.837899 ] } },
{ "type": "Feature", "properties": { "name": null, "name:en": null, "amenity": "ferry_terminal", "building": null, "port": null, "operator:type": null, "addr:full": null, "addr:city": null, "source": null, "name:th": null, "osm_id": 5945237945, "osm_type": "nodes" }, "geometry": { "type": "Point", "coordinates": [ 98.9958336, 7.8941257 ] } },
{ "type": "Feature", "properties": { "name": "Laem Hin Pier", "name:en": null, "amenity": "ferry_terminal", "building": null, "port": null, "operator:type": null, "addr:full": null, "addr:city": null, "source": null, "name:th": null, "osm_id": 1094543610, "osm_type": "nodes" }, "geometry": { "type": "Point", "coordinates": [ 98.9743633, 7.9347481 ] } },
{ "type": "Feature", "properties": { "name": null, "name:en": null, "amenity": "ferry_terminal", "building": null, "port": null, "operator:type": null, "addr:full": null, "addr:city": null, "source": null, "name:th": null, "osm_id": 1291689899, "osm_type": "nodes" }, "geometry": { "type": "Point", "coordinates": [ 98.9739026, 7.9274709 ] } },
{ "type": "Feature", "properties": { "name": null, "name:en": null, "amenity": "ferry_terminal", "building": null, "port": null, "operator:type": null, "addr:full": null, "addr:city": null, "source": null, "name:th": null, "osm_id": 1291688420, "osm_type": "nodes" }, "geometry": { "type": "Point", "coordinates": [ 98.9561551, 7.9936257 ] } },
{ "type": "Feature", "properties": { "name": null, "name:en": null, "amenity": "ferry_terminal", "building": null, "port": null, "operator:type": null, "addr:full": null, "addr:city": null, "source": null, "name:th": null, "osm_id": 5458482718, "osm_type": "nodes" }, "geometry": { "type": "Point", "coordinates": [ 98.9607863, 7.9920938 ] } },
{ "type": "Feature", "properties": { "name": null, "name:en": null, "amenity": "ferry_terminal", "building": null, "port": null, "operator:type": null, "addr:full": null, "addr:city": null, "source": null, "name:th": null, "osm_id": 1787922459, "osm_type": "nodes" }, "geometry": { "type": "Point", "coordinates": [ 99.5080756, 7.4067587 ] } },
{ "type": "Feature", "properties": { "name": null, "name:en": null, "amenity": "ferry_terminal", "building": null, "port": null, "operator:type": null, "addr:full": null, "addr:city": null, "source": null, "name:th": null, "osm_id": 1787922464, "osm_type": "nodes" }, "geometry": { "type": "Point", "coordinates": [ 99.5051443, 7.4092154 ] } },
{ "type": "Feature", "properties": { "name": null, "name:en": null, "amenity": "ferry_terminal", "building": null, "port": null, "operator:type": null, "addr:full": null, "addr:city": null, "source": null, "name:th": null, "osm_id": 1183546472, "osm_type": "nodes" }, "geometry": { "type": "Point", "coordinates": [ 100.269666, 13.5429115 ] } },
{ "type": "Feature", "properties": { "name": "ท่าเรือข้ามฟากวัดตึกมหาชยาราม", "name:en": null, "amenity": "ferry_terminal", "building": null, "port": null, "operator:type": null, "addr:full": null, "addr:city": null, "source": null, "name:th": null, "osm_id": 8093957531, "osm_type": "nodes" }, "geometry": { "type": "Point", "coordinates": [ 100.2777978, 13.5447738 ] } },
{ "type": "Feature", "properties": { "name": null, "name:en": "Haad Rin Queen", "amenity": "ferry_terminal", "building": null, "port": null, "operator:type": null, "addr:full": null, "addr:city": null, "source": null, "name:th": null, "osm_id": 1827305028, "osm_type": "nodes" }, "geometry": { "type": "Point", "coordinates": [ 100.063244, 9.6738945 ] } },
{ "type": "Feature", "properties": { "name": null, "name:en": null, "amenity": "ferry_terminal", "building": null, "port": null, "operator:type": null, "addr:full": null, "addr:city": null, "source": null, "name:th": null, "osm_id": 2389162339, "osm_type": "nodes" }, "geometry": { "type": "Point", "coordinates": [ 100.5750057, 14.3662529 ] } },
{ "type": "Feature", "properties": { "name": null, "name:en": null, "amenity": "ferry_terminal", "building": null, "port": null, "operator:type": null, "addr:full": null, "addr:city": null, "source": null, "name:th": null, "osm_id": 7501363379, "osm_type": "nodes" }, "geometry": { "type": "Point", "coordinates": [ 100.5610754, 14.3422217 ] } },
{ "type": "Feature", "properties": { "name": null, "name:en": null, "amenity": "ferry_terminal", "building": null, "port": null, "operator:type": null, "addr:full": null, "addr:city": null, "source": null, "name:th": null, "osm_id": 7501363378, "osm_type": "nodes" }, "geometry": { "type": "Point", "coordinates": [ 100.5609307, 14.3414645 ] } },
{ "type": "Feature", "properties": { "name": "ท่าเรือข้ามฟากท่าน้ำนนท์", "name:en": "Nonthaburi Ferry Pier", "amenity": "ferry_terminal", "building": null, "port": null, "operator:type": null, "addr:full": null, "addr:city": null, "source": null, "name:th": "ท่าเรือข้ามฟากท่าน้ำนนท์", "osm_id": 6549136022, "osm_type": "nodes" }, "geometry": { "type": "Point", "coordinates": [ 100.4910185, 13.8425105 ] } },
{ "type": "Feature", "properties": { "name": "Cape Pathiu Pier", "name:en": null, "amenity": "ferry_terminal", "building": null, "port": null, "operator:type": null, "addr:full": null, "addr:city": null, "source": null, "name:th": null, "osm_id": 9025778872, "osm_type": "nodes" }, "geometry": { "type": "Point", "coordinates": [ 99.3812401, 10.711952 ] } },
{ "type": "Feature", "properties": { "name": "ชิดลม", "name:en": "Chidlom", "amenity": "ferry_terminal", "building": null, "port": null, "operator:type": null, "addr:full": null, "addr:city": null, "source": null, "name:th": "ชิดลม", "osm_id": 566622607, "osm_type": "nodes" }, "geometry": { "type": "Point", "coordinates": [ 100.5445742, 13.7487051 ] } },
{ "type": "Feature", "properties": { "name": "ท่าเรือวัดดาวดึงษาราม", "name:en": "Wat Daowaduengsaram Pier", "amenity": "ferry_terminal", "building": null, "port": null, "operator:type": null, "addr:full": null, "addr:city": null, "source": null, "name:th": null, "osm_id": 1632824440, "osm_type": "nodes" }, "geometry": { "type": "Point", "coordinates": [ 100.4934036, 13.765395 ] } },
{ "type": "Feature", "properties": { "name": "ท่าเรือพระประแดง", "name:en": "Phra Pradaeng Pier", "amenity": "ferry_terminal", "building": null, "port": null, "operator:type": null, "addr:full": null, "addr:city": null, "source": null, "name:th": null, "osm_id": 1623682066, "osm_type": "nodes" }, "geometry": { "type": "Point", "coordinates": [ 100.5341593, 13.6570342 ] } },
{ "type": "Feature", "properties": { "name": "Laem Kruat longtail pier", "name:en": null, "amenity": "ferry_terminal", "building": null, "port": null, "operator:type": null, "addr:full": null, "addr:city": null, "source": null, "name:th": null, "osm_id": 2058425412, "osm_type": "nodes" }, "geometry": { "type": "Point", "coordinates": [ 99.0280755, 7.8899801 ] } },
{ "type": "Feature", "properties": { "name": null, "name:en": null, "amenity": "ferry_terminal", "building": null, "port": null, "operator:type": null, "addr:full": null, "addr:city": null, "source": null, "name:th": null, "osm_id": 12491771570, "osm_type": "nodes" }, "geometry": { "type": "Point", "coordinates": [ 98.5173005, 16.6733111 ] } },
{ "type": "Feature", "properties": { "name": "ตลาดโบ๊เบ๊", "name:en": "Talad Bobae", "amenity": "ferry_terminal", "building": null, "port": null, "operator:type": null, "addr:full": null, "addr:city": null, "source": null, "name:th": "ตลาดโบ๊เบ๊", "osm_id": 567014146, "osm_type": "nodes" }, "geometry": { "type": "Point", "coordinates": [ 100.515961, 13.7534236 ] } },
{ "type": "Feature", "properties": { "name": "ท่าเรือวัดบางน้ำผึ้งนอก", "name:en": "Wat Bang Namphueng Nok Pier", "amenity": "ferry_terminal", "building": null, "port": null, "operator:type": null, "addr:full": null, "addr:city": null, "source": null, "name:th": null, "osm_id": 487075253, "osm_type": "nodes" }, "geometry": { "type": "Point", "coordinates": [ 100.5872296, 13.6824752 ] } },
{ "type": "Feature", "properties": { "name": "ท่าเรือวัดบางนานอก", "name:en": "Wat Bang Na Nok Pier", "amenity": "ferry_terminal", "building": null, "port": null, "operator:type": null, "addr:full": null, "addr:city": null, "source": null, "name:th": null, "osm_id": 487075255, "osm_type": "nodes" }, "geometry": { "type": "Point", "coordinates": [ 100.5873694, 13.6766314 ] } },
{ "type": "Feature", "properties": { "name": null, "name:en": null, "amenity": "ferry_terminal", "building": null, "port": null, "operator:type": null, "addr:full": null, "addr:city": null, "source": null, "name:th": null, "osm_id": 12528905212, "osm_type": "nodes" }, "geometry": { "type": "Point", "coordinates": [ 100.5868972, 13.6819114 ] } },
{ "type": "Feature", "properties": { "name": "Koh Maphrao Nok Pier", "name:en": null, "amenity": "ferry_terminal", "building": null, "port": null, "operator:type": null, "addr:full": null, "addr:city": null, "source": null, "name:th": null, "osm_id": 4996548421, "osm_type": "nodes" }, "geometry": { "type": "Point", "coordinates": [ 102.3924361, 11.9747207 ] } },
{ "type": "Feature", "properties": { "name": null, "name:en": null, "amenity": "ferry_terminal", "building": null, "port": null, "operator:type": null, "addr:full": null, "addr:city": null, "source": null, "name:th": null, "osm_id": 2506699466, "osm_type": "nodes" }, "geometry": { "type": "Point", "coordinates": [ 98.337814, 7.7789328 ] } },
{ "type": "Feature", "properties": { "name": null, "name:en": null, "amenity": "ferry_terminal", "building": null, "port": null, "operator:type": null, "addr:full": null, "addr:city": null, "source": null, "name:th": null, "osm_id": 6310499477, "osm_type": "nodes" }, "geometry": { "type": "Point", "coordinates": [ 99.0165574, 14.6727644 ] } },
{ "type": "Feature", "properties": { "name": "ท่าเรือเภตรา", "name:en": "Phetra Pier", "amenity": "ferry_terminal", "building": null, "port": null, "operator:type": null, "addr:full": null, "addr:city": null, "source": null, "name:th": "ท่าเรือเภตรา", "osm_id": 1189125946, "osm_type": "nodes" }, "geometry": { "type": "Point", "coordinates": [ 100.5374681, 13.6570694 ] } },
{ "type": "Feature", "properties": { "name": "ท่าเรือเทศบาลเมืองพระประแดง", "name:en": "Phra Pradaeng Town Municipality Pier", "amenity": "ferry_terminal", "building": null, "port": null, "operator:type": null, "addr:full": null, "addr:city": null, "source": null, "name:th": "ท่าเรือเทศบาลเมืองพระประแดง", "osm_id": 1199581265, "osm_type": "nodes" }, "geometry": { "type": "Point", "coordinates": [ 100.5348392, 13.6581576 ] } },
{ "type": "Feature", "properties": { "name": "ท่าเรือเภตรา", "name:en": "Phetra Pier", "amenity": "ferry_terminal", "building": null, "port": null, "operator:type": null, "addr:full": null, "addr:city": null, "source": null, "name:th": "ท่าเรือเภตรา", "osm_id": 7829320691, "osm_type": "nodes" }, "geometry": { "type": "Point", "coordinates": [ 100.53743, 13.6577342 ] } },
{ "type": "Feature", "properties": { "name": null, "name:en": null, "amenity": "ferry_terminal", "building": null, "port": null, "operator:type": null, "addr:full": null, "addr:city": null, "source": null, "name:th": null, "osm_id": 9967157903, "osm_type": "nodes" }, "geometry": { "type": "Point", "coordinates": [ 98.521944, 16.6498488 ] } },
{ "type": "Feature", "properties": { "name": null, "name:en": null, "amenity": "ferry_terminal", "building": null, "port": null, "operator:type": null, "addr:full": null, "addr:city": null, "source": null, "name:th": null, "osm_id": 11127413795, "osm_type": "nodes" }, "geometry": { "type": "Point", "coordinates": [ 98.5599985, 16.6339817 ] } },
{ "type": "Feature", "properties": { "name": null, "name:en": null, "amenity": "ferry_terminal", "building": null, "port": null, "operator:type": null, "addr:full": null, "addr:city": null, "source": null, "name:th": null, "osm_id": 11133786016, "osm_type": "nodes" }, "geometry": { "type": "Point", "coordinates": [ 98.5651052, 16.6310046 ] } },
{ "type": "Feature", "properties": { "name": null, "name:en": null, "amenity": "ferry_terminal", "building": null, "port": null, "operator:type": null, "addr:full": null, "addr:city": null, "source": null, "name:th": null, "osm_id": 11133786022, "osm_type": "nodes" }, "geometry": { "type": "Point", "coordinates": [ 98.5505254, 16.6353051 ] } },
{ "type": "Feature", "properties": { "name": null, "name:en": null, "amenity": "ferry_terminal", "building": null, "port": null, "operator:type": null, "addr:full": null, "addr:city": null, "source": null, "name:th": null, "osm_id": 9967156700, "osm_type": "nodes" }, "geometry": { "type": "Point", "coordinates": [ 98.5508739, 16.6357893 ] } },
{ "type": "Feature", "properties": { "name": null, "name:en": null, "amenity": "ferry_terminal", "building": null, "port": null, "operator:type": null, "addr:full": null, "addr:city": null, "source": null, "name:th": null, "osm_id": 9967157297, "osm_type": "nodes" }, "geometry": { "type": "Point", "coordinates": [ 98.5592585, 16.6337739 ] } },
{ "type": "Feature", "properties": { "name": null, "name:en": null, "amenity": "ferry_terminal", "building": null, "port": null, "operator:type": null, "addr:full": null, "addr:city": null, "source": null, "name:th": null, "osm_id": 9967157607, "osm_type": "nodes" }, "geometry": { "type": "Point", "coordinates": [ 98.5652912, 16.6306806 ] } },
{ "type": "Feature", "properties": { "name": null, "name:en": null, "amenity": "ferry_terminal", "building": null, "port": null, "operator:type": null, "addr:full": null, "addr:city": null, "source": null, "name:th": null, "osm_id": 9967157749, "osm_type": "nodes" }, "geometry": { "type": "Point", "coordinates": [ 98.5223054, 16.65028 ] } },
{ "type": "Feature", "properties": { "name": "ท่าเรือบ้านห้วยต้า", "name:en": null, "amenity": "ferry_terminal", "building": null, "port": null, "operator:type": null, "addr:full": null, "addr:city": null, "source": null, "name:th": null, "osm_id": 12115269302, "osm_type": "nodes" }, "geometry": { "type": "Point", "coordinates": [ 100.4776457, 17.9906079 ] } },
{ "type": "Feature", "properties": { "name": "25号码头", "name:en": null, "amenity": "ferry_terminal", "building": null, "port": null, "operator:type": null, "addr:full": null, "addr:city": null, "source": null, "name:th": null, "osm_id": 12535451006, "osm_type": "nodes" }, "geometry": { "type": "Point", "coordinates": [ 98.4937791, 16.7138768 ] } },
{ "type": "Feature", "properties": { "name": null, "name:en": null, "amenity": "ferry_terminal", "building": null, "port": null, "operator:type": null, "addr:full": null, "addr:city": null, "source": null, "name:th": null, "osm_id": 12551729380, "osm_type": "nodes" }, "geometry": { "type": "Point", "coordinates": [ 98.4932746, 16.7133271 ] } },
{ "type": "Feature", "properties": { "name": null, "name:en": null, "amenity": "ferry_terminal", "building": null, "port": null, "operator:type": null, "addr:full": null, "addr:city": null, "source": null, "name:th": null, "osm_id": 12551664985, "osm_type": "nodes" }, "geometry": { "type": "Point", "coordinates": [ 98.4967522, 16.7007438 ] } },
{ "type": "Feature", "properties": { "name": "13号码头", "name:en": null, "amenity": "ferry_terminal", "building": null, "port": null, "operator:type": null, "addr:full": null, "addr:city": null, "source": null, "name:th": null, "osm_id": 12551664986, "osm_type": "nodes" }, "geometry": { "type": "Point", "coordinates": [ 98.496378, 16.7007792 ] } },
{ "type": "Feature", "properties": { "name": "Laem Ngop Pier", "name:en": null, "amenity": "ferry_terminal", "building": null, "port": null, "operator:type": null, "addr:full": null, "addr:city": null, "source": null, "name:th": null, "osm_id": 2223926452, "osm_type": "nodes" }, "geometry": { "type": "Point", "coordinates": [ 102.3868607, 12.1753583 ] } },
{ "type": "Feature", "properties": { "name": null, "name:en": null, "amenity": "ferry_terminal", "building": null, "port": null, "operator:type": null, "addr:full": null, "addr:city": null, "source": null, "name:th": null, "osm_id": 1183700077, "osm_type": "nodes" }, "geometry": { "type": "Point", "coordinates": [ 99.9973965, 13.4081403 ] } },
{ "type": "Feature", "properties": { "name": "กรมชลประทาน", "name:en": "Irrigation Dept.", "amenity": "ferry_terminal", "building": null, "port": null, "operator:type": null, "addr:full": null, "addr:city": null, "source": null, "name:th": "กรมชลประทาน", "osm_id": 7791237213, "osm_type": "nodes" }, "geometry": { "type": "Point", "coordinates": [ 100.50953, 13.7888406 ] } },
{ "type": "Feature", "properties": { "name": "เขียวไข่กา", "name:en": "Kheaw Khai Ka", "amenity": "ferry_terminal", "building": null, "port": null, "operator:type": null, "addr:full": null, "addr:city": null, "source": null, "name:th": null, "osm_id": 7791237220, "osm_type": "nodes" }, "geometry": { "type": "Point", "coordinates": [ 100.5115992, 13.7911233 ] } },
{ "type": "Feature", "properties": { "name": null, "name:en": "MuTu Pier", "amenity": "ferry_terminal", "building": null, "port": null, "operator:type": null, "addr:full": null, "addr:city": null, "source": null, "name:th": null, "osm_id": 260964977, "osm_type": "nodes" }, "geometry": { "type": "Point", "coordinates": [ 98.9811561, 7.8100318 ] } },
{ "type": "Feature", "properties": { "name": "ท่าเรือบ้านเกาะปู", "name:en": "Ban Koh Pu pier", "amenity": "ferry_terminal", "building": null, "port": null, "operator:type": null, "addr:full": null, "addr:city": null, "source": null, "name:th": "ท่าเรือบ้านเกาะปู", "osm_id": 642936502, "osm_type": "nodes" }, "geometry": { "type": "Point", "coordinates": [ 98.9755582, 7.84911 ] } },
{ "type": "Feature", "properties": { "name": "ท่าเรือเกาะจัม", "name:en": "Koh Jum pier", "amenity": "ferry_terminal", "building": null, "port": null, "operator:type": null, "addr:full": null, "addr:city": null, "source": null, "name:th": "ท่าเรือเกาะจัม", "osm_id": 642936790, "osm_type": "nodes" }, "geometry": { "type": "Point", "coordinates": [ 98.9916723, 7.7968232 ] } },
{ "type": "Feature", "properties": { "name": "Yamu pier", "name:en": null, "amenity": "ferry_terminal", "building": null, "port": null, "operator:type": null, "addr:full": null, "addr:city": null, "source": null, "name:th": null, "osm_id": 5276840426, "osm_type": "nodes" }, "geometry": { "type": "Point", "coordinates": [ 98.4154897, 7.9903466 ] } },
{ "type": "Feature", "properties": { "name": "Ban Phe Pier", "name:en": "Chok Krisada Pier Ferry Boat and Speed Boat", "amenity": "ferry_terminal", "building": null, "port": null, "operator:type": null, "addr:full": null, "addr:city": null, "source": null, "name:th": null, "osm_id": 2078709709, "osm_type": "nodes" }, "geometry": { "type": "Point", "coordinates": [ 101.4385231, 12.627087 ] } },
{ "type": "Feature", "properties": { "name": "Speed Boat Pier 9mil Kip To LP", "name:en": null, "amenity": "ferry_terminal", "building": null, "port": null, "operator:type": null, "addr:full": null, "addr:city": null, "source": null, "name:th": null, "osm_id": 10601153330, "osm_type": "nodes" }, "geometry": { "type": "Point", "coordinates": [ 100.4268539, 20.2496378 ] } },
{ "type": "Feature", "properties": { "name": null, "name:en": null, "amenity": "ferry_terminal", "building": null, "port": null, "operator:type": null, "addr:full": null, "addr:city": null, "source": null, "name:th": null, "osm_id": 2493958172, "osm_type": "nodes" }, "geometry": { "type": "Point", "coordinates": [ 99.3981486, 7.221278 ] } },
{ "type": "Feature", "properties": { "name": "Ko Tao Diving", "name:en": null, "amenity": "ferry_terminal", "building": null, "port": null, "operator:type": null, "addr:full": null, "addr:city": null, "source": "Gpsmap 62sc Parie 2014", "name:th": null, "osm_id": 1650468138, "osm_type": "nodes" }, "geometry": { "type": "Point", "coordinates": [ 99.4847728, 11.1268969 ] } },
{ "type": "Feature", "properties": { "name": "Pier Koh Tha-Hu (closed)", "name:en": null, "amenity": "ferry_terminal", "building": null, "port": null, "operator:type": null, "addr:full": null, "addr:city": null, "source": "Gpsmap 62sc Parie 2014", "name:th": null, "osm_id": 2651938511, "osm_type": "nodes" }, "geometry": { "type": "Point", "coordinates": [ 99.4917738, 11.0915284 ] } },
{ "type": "Feature", "properties": { "name": "Koh Tha-Hu", "name:en": null, "amenity": "ferry_terminal", "building": null, "port": null, "operator:type": null, "addr:full": null, "addr:city": null, "source": null, "name:th": null, "osm_id": 12592540148, "osm_type": "nodes" }, "geometry": { "type": "Point", "coordinates": [ 99.4905778, 11.0885455 ] } },
{ "type": "Feature", "properties": { "name": "ท่าเรือเจ้าฟ้า", "name:en": "Chaofa Pier", "amenity": "ferry_terminal", "building": null, "port": null, "operator:type": null, "addr:full": null, "addr:city": null, "source": null, "name:th": "ท่าเรือเจ้าฟ้า", "osm_id": 10136622867, "osm_type": "nodes" }, "geometry": { "type": "Point", "coordinates": [ 98.9195058, 8.0627609 ] } },
{ "type": "Feature", "properties": { "name": "อโศก", "name:en": "Asok Pier", "amenity": "ferry_terminal", "building": null, "port": null, "operator:type": null, "addr:full": null, "addr:city": null, "source": null, "name:th": "อโศก", "osm_id": 566623721, "osm_type": "nodes" }, "geometry": { "type": "Point", "coordinates": [ 100.5629489, 13.747855 ] } },
{ "type": "Feature", "properties": { "name": null, "name:en": "Boat to Thailand (only for locals)", "amenity": "ferry_terminal", "building": null, "port": null, "operator:type": null, "addr:full": null, "addr:city": null, "source": null, "name:th": null, "osm_id": 12098205502, "osm_type": "nodes" }, "geometry": { "type": "Point", "coordinates": [ 100.0973956, 20.2910564 ] } },
{ "type": "Feature", "properties": { "name": null, "name:en": "Pier to Laem Mai Thai Island", "amenity": "ferry_terminal", "building": null, "port": null, "operator:type": null, "addr:full": null, "addr:city": null, "source": null, "name:th": null, "osm_id": 4580940793, "osm_type": "nodes" }, "geometry": { "type": "Point", "coordinates": [ 98.3736642, 9.2267806 ] } },
{ "type": "Feature", "properties": { "name": "ท่าเรือ-ด่านตรวจคนเข้าเมือง", "name:en": "Passenger Pier", "amenity": "ferry_terminal", "building": null, "port": null, "operator:type": null, "addr:full": null, "addr:city": null, "source": "GPS survey", "name:th": "ท่าเรือ-ด่านตรวจคนเข้าเมือง", "osm_id": 912500722, "osm_type": "nodes" }, "geometry": { "type": "Point", "coordinates": [ 103.6334413, 18.3852015 ] } },
{ "type": "Feature", "properties": { "name": "เกาะหลีเป๊ะ", "name:en": "Ko Lipe", "amenity": "ferry_terminal", "building": null, "port": null, "operator:type": null, "addr:full": null, "addr:city": null, "source": null, "name:th": "เกาะหลีเป๊ะ", "osm_id": 5425777804, "osm_type": "nodes" }, "geometry": { "type": "Point", "coordinates": [ 99.305613, 6.4850747 ] } },
{ "type": "Feature", "properties": { "name": null, "name:en": null, "amenity": "ferry_terminal", "building": null, "port": null, "operator:type": null, "addr:full": null, "addr:city": null, "source": null, "name:th": null, "osm_id": 775508788, "osm_type": "nodes" }, "geometry": { "type": "Point", "coordinates": [ 98.4232133, 9.7404444 ] } },
{ "type": "Feature", "properties": { "name": "หมู่บ้านร่มไทร", "name:en": "Rom Sai Village", "amenity": "ferry_terminal", "building": null, "port": null, "operator:type": null, "addr:full": null, "addr:city": null, "source": null, "name:th": "หมู่บ้านร่มไทร", "osm_id": 9758722607, "osm_type": "nodes" }, "geometry": { "type": "Point", "coordinates": [ 100.6814395, 13.7846294 ] } },
{ "type": "Feature", "properties": { "name": "พาซิโอ", "name:en": "Paseo", "amenity": "ferry_terminal", "building": null, "port": null, "operator:type": null, "addr:full": null, "addr:city": null, "source": null, "name:th": "พาซิโอ", "osm_id": 9758722599, "osm_type": "nodes" }, "geometry": { "type": "Point", "coordinates": [ 100.6658655, 13.7758477 ] } },
{ "type": "Feature", "properties": { "name": "เสรีไทย 26", "name:en": "Seri Thai 26", "amenity": "ferry_terminal", "building": null, "port": null, "operator:type": null, "addr:full": null, "addr:city": null, "source": null, "name:th": "เสรีไทย 26", "osm_id": 9758722602, "osm_type": "nodes" }, "geometry": { "type": "Point", "coordinates": [ 100.6745504, 13.7807959 ] } },
{ "type": "Feature", "properties": { "name": "สุเหร่าแดง", "name:en": "Red Mosque Pier", "amenity": "ferry_terminal", "building": null, "port": null, "operator:type": null, "addr:full": null, "addr:city": null, "source": null, "name:th": "สุเหร่าแดง", "osm_id": 9758722610, "osm_type": "nodes" }, "geometry": { "type": "Point", "coordinates": [ 100.6892481, 13.7888569 ] } },
{ "type": "Feature", "properties": { "name": "ท่าเรือไปวัดติโลกอาราม", "name:en": "Pier to Wat Tilok Aram", "amenity": "ferry_terminal", "building": null, "port": null, "operator:type": null, "addr:full": null, "addr:city": null, "source": null, "name:th": null, "osm_id": 3928844493, "osm_type": "nodes" }, "geometry": { "type": "Point", "coordinates": [ 99.9002586, 19.162829 ] } },
{ "type": "Feature", "properties": { "name": "Seri Thai 16", "name:en": null, "amenity": "ferry_terminal", "building": null, "port": null, "operator:type": null, "addr:full": null, "addr:city": null, "source": null, "name:th": null, "osm_id": 12616016860, "osm_type": "nodes" }, "geometry": { "type": "Point", "coordinates": [ 100.6712175, 13.7789834 ] } },
{ "type": "Feature", "properties": { "name": null, "name:en": null, "amenity": "ferry_terminal", "building": null, "port": null, "operator:type": null, "addr:full": null, "addr:city": null, "source": null, "name:th": null, "osm_id": 12616016864, "osm_type": "nodes" }, "geometry": { "type": "Point", "coordinates": [ 100.6715048, 13.779176 ] } },
{ "type": "Feature", "properties": { "name": null, "name:en": null, "amenity": "ferry_terminal", "building": null, "port": null, "operator:type": null, "addr:full": null, "addr:city": null, "source": null, "name:th": null, "osm_id": 12616016866, "osm_type": "nodes" }, "geometry": { "type": "Point", "coordinates": [ 100.6715953, 13.7790449 ] } },
{ "type": "Feature", "properties": { "name": null, "name:en": "Daily Slow ferry 10am to Koh Phayam", "amenity": "ferry_terminal", "building": null, "port": null, "operator:type": null, "addr:full": null, "addr:city": null, "source": null, "name:th": null, "osm_id": 11810736270, "osm_type": "nodes" }, "geometry": { "type": "Point", "coordinates": [ 98.5922863, 9.9342332 ] } },
{ "type": "Feature", "properties": { "name": "Wat Lad Sanun Pier", "name:en": null, "amenity": "ferry_terminal", "building": null, "port": null, "operator:type": null, "addr:full": null, "addr:city": null, "source": null, "name:th": "ท่าเรือวัดลาดสนุ่น", "osm_id": 11264893194, "osm_type": "nodes" }, "geometry": { "type": "Point", "coordinates": [ 100.6357097, 13.9599829 ] } },
{ "type": "Feature", "properties": { "name": "ท่าเรือมารีน่า", "name:en": "Marina Pier", "amenity": "ferry_terminal", "building": null, "port": null, "operator:type": null, "addr:full": null, "addr:city": null, "source": null, "name:th": "ท่าเรือมารีน่า", "osm_id": 2502554722, "osm_type": "nodes" }, "geometry": { "type": "Point", "coordinates": [ 98.920713, 8.0557259 ] } },
{ "type": "Feature", "properties": { "name": "ท่าเรือคลองจิหลาด", "name:en": "Klong Jilad Pier", "amenity": "ferry_terminal", "building": null, "port": null, "operator:type": null, "addr:full": null, "addr:city": null, "source": null, "name:th": "ท่าเรือคลองจิหลาด", "osm_id": 260742650, "osm_type": "nodes" }, "geometry": { "type": "Point", "coordinates": [ 98.9058596, 8.0458536 ] } },
{ "type": "Feature", "properties": { "name": null, "name:en": null, "amenity": "ferry_terminal", "building": null, "port": null, "operator:type": null, "addr:full": null, "addr:city": null, "source": null, "name:th": null, "osm_id": 6084675125, "osm_type": "nodes" }, "geometry": { "type": "Point", "coordinates": [ 98.9235216, 8.0554346 ] } },
{ "type": "Feature", "properties": { "name": "ท่าเรือคงคา", "name:en": "Khong Kha Pier", "amenity": "ferry_terminal", "building": null, "port": null, "operator:type": null, "addr:full": null, "addr:city": null, "source": null, "name:th": "ท่าเรือคงคา", "osm_id": 10136632954, "osm_type": "nodes" }, "geometry": { "type": "Point", "coordinates": [ 98.9198738, 8.0619627 ] } },
{ "type": "Feature", "properties": { "name": "ท่าเรือสวนสาธารณะธารา", "name:en": "Thara Park Pier", "amenity": "ferry_terminal", "building": null, "port": null, "operator:type": null, "addr:full": null, "addr:city": null, "source": null, "name:th": "ท่าเรือสวนสาธารณะธารา", "osm_id": 10136700109, "osm_type": "nodes" }, "geometry": { "type": "Point", "coordinates": [ 98.9200207, 8.0533952 ] } },
{ "type": "Feature", "properties": { "name": "ท่าเรือหินขวาง", "name:en": "Hin Khwang Pier", "amenity": "ferry_terminal", "building": null, "port": null, "operator:type": null, "addr:full": null, "addr:city": null, "source": null, "name:th": "ท่าเรือหินขวาง", "osm_id": 10181649000, "osm_type": "nodes" }, "geometry": { "type": "Point", "coordinates": [ 98.9164684, 8.0964105 ] } },
{ "type": "Feature", "properties": { "name": null, "name:en": null, "amenity": "ferry_terminal", "building": null, "port": null, "operator:type": null, "addr:full": null, "addr:city": null, "source": null, "name:th": null, "osm_id": 2457772223, "osm_type": "nodes" }, "geometry": { "type": "Point", "coordinates": [ 98.8308266, 8.0180505 ] } },
{ "type": "Feature", "properties": { "name": "อ่าวน้ำเมา", "name:en": "Ao Nam Mao pier", "amenity": "ferry_terminal", "building": null, "port": null, "operator:type": null, "addr:full": null, "addr:city": null, "source": null, "name:th": "อ่าวน้ำเมา", "osm_id": 6126121289, "osm_type": "nodes" }, "geometry": { "type": "Point", "coordinates": [ 98.8632011, 8.028918 ] } },
{ "type": "Feature", "properties": { "name": "อ่าวน้ำเมา", "name:en": "Ao Nam Mao pier", "amenity": "ferry_terminal", "building": null, "port": null, "operator:type": null, "addr:full": null, "addr:city": null, "source": null, "name:th": "อ่าวน้ำเมา", "osm_id": 1286410591, "osm_type": "nodes" }, "geometry": { "type": "Point", "coordinates": [ 98.8625369, 8.0258472 ] } },
{ "type": "Feature", "properties": { "name": "อ่าวไร่เลย์", "name:en": "Railay", "amenity": "ferry_terminal", "building": null, "port": null, "operator:type": null, "addr:full": null, "addr:city": null, "source": null, "name:th": "อ่าวไร่เลย์", "osm_id": 7528655385, "osm_type": "nodes" }, "geometry": { "type": "Point", "coordinates": [ 98.8375834, 8.0112971 ] } },
{ "type": "Feature", "properties": { "name": "สี่พระยา", "name:en": "Si Phraya", "amenity": "ferry_terminal", "building": null, "port": null, "operator:type": null, "addr:full": null, "addr:city": null, "source": null, "name:th": "สี่พระยา", "osm_id": 1408509168, "osm_type": "nodes" }, "geometry": { "type": "Point", "coordinates": [ 100.5131062, 13.728416 ] } },
{ "type": "Feature", "properties": { "name": "Pak Meng Ferry Terminal", "name:en": null, "amenity": "ferry_terminal", "building": null, "port": null, "operator:type": null, "addr:full": null, "addr:city": null, "source": null, "name:th": null, "osm_id": 1583920427, "osm_type": "nodes" }, "geometry": { "type": "Point", "coordinates": [ 99.3107619, 7.5062005 ] } },
{ "type": "Feature", "properties": { "name": null, "name:en": null, "amenity": "ferry_terminal", "building": null, "port": null, "operator:type": null, "addr:full": null, "addr:city": null, "source": null, "name:th": null, "osm_id": 617259107, "osm_type": "nodes" }, "geometry": { "type": "Point", "coordinates": [ 99.2574596, 7.3119219 ] } },
{ "type": "Feature", "properties": { "name": "ท่าเรือหาดยาว", "name:en": "Haad Yao Pier", "amenity": "ferry_terminal", "building": null, "port": null, "operator:type": null, "addr:full": null, "addr:city": null, "source": null, "name:th": "ท่าเรือหาดยาว", "osm_id": 2457706088, "osm_type": "nodes" }, "geometry": { "type": "Point", "coordinates": [ 99.4021753, 7.311053 ] } },
{ "type": "Feature", "properties": { "name": null, "name:en": "Kuangtungku Pier", "amenity": "ferry_terminal", "building": null, "port": null, "operator:type": null, "addr:full": null, "addr:city": null, "source": null, "name:th": "ท่าเรือ ควนตุ้งกู", "osm_id": 617261192, "osm_type": "nodes" }, "geometry": { "type": "Point", "coordinates": [ 99.350732, 7.3905402 ] } },
{ "type": "Feature", "properties": { "name": "สงขลา", "name:en": "Songkhla", "amenity": "ferry_terminal", "building": null, "port": null, "operator:type": null, "addr:full": null, "addr:city": null, "source": null, "name:th": "สงขลา", "osm_id": 9374658808, "osm_type": "nodes" }, "geometry": { "type": "Point", "coordinates": [ 100.5718974, 7.2303253 ] } },
{ "type": "Feature", "properties": { "name": "ท่าเรือนางแอ่น", "name:en": "Nang An Pier", "amenity": "ferry_terminal", "building": null, "port": null, "operator:type": null, "addr:full": null, "addr:city": null, "source": null, "name:th": "ท่าเรือนางแอ่น", "osm_id": 2495732689, "osm_type": "nodes" }, "geometry": { "type": "Point", "coordinates": [ 98.7991121, 8.0499594 ] } },
{ "type": "Feature", "properties": { "name": "ท่าเรือนพรัตน์ธารา", "name:en": "Noppharat Thara Pier", "amenity": "ferry_terminal", "building": null, "port": null, "operator:type": null, "addr:full": null, "addr:city": null, "source": null, "name:th": "ท่าเรือนพรัตน์ธารา", "osm_id": 2495732193, "osm_type": "nodes" }, "geometry": { "type": "Point", "coordinates": [ 98.7984936, 8.0475797 ] } },
{ "type": "Feature", "properties": { "name": "ท่าเรืออ่าวสวนใหญ่", "name:en": "Ao Soun Yai Pier", "amenity": "ferry_terminal", "building": null, "port": null, "operator:type": null, "addr:full": null, "addr:city": null, "source": null, "name:th": "ท่าเรืออ่าวสวนใหญ่", "osm_id": 776289006, "osm_type": "nodes" }, "geometry": { "type": "Point", "coordinates": [ 102.4693581, 11.8254968 ] } },
{ "type": "Feature", "properties": { "name": "Tantawan Pier", "name:en": null, "amenity": "ferry_terminal", "building": null, "port": null, "operator:type": null, "addr:full": null, "addr:city": null, "source": null, "name:th": null, "osm_id": 2137546872, "osm_type": "nodes" }, "geometry": { "type": "Point", "coordinates": [ 102.4376478, 11.9549073 ] } },
{ "type": "Feature", "properties": { "name": "Lower Bang Chan Dam Pier", "name:en": null, "amenity": "ferry_terminal", "building": null, "port": null, "operator:type": null, "addr:full": null, "addr:city": null, "source": null, "name:th": null, "osm_id": 9758735118, "osm_type": "nodes" }, "geometry": { "type": "Point", "coordinates": [ 100.7042362, 13.7971962 ] } },
{ "type": "Feature", "properties": { "name": "Upper Bang Chan Dam Pier", "name:en": null, "amenity": "ferry_terminal", "building": null, "port": null, "operator:type": null, "addr:full": null, "addr:city": null, "source": null, "name:th": null, "osm_id": 9758735121, "osm_type": "nodes" }, "geometry": { "type": "Point", "coordinates": [ 100.7047798, 13.7975034 ] } },
{ "type": "Feature", "properties": { "name": "speed boat arrival (low season)", "name:en": "débarcadère speed boat (low season)", "amenity": "ferry_terminal", "building": null, "port": null, "operator:type": null, "addr:full": null, "addr:city": null, "source": null, "name:th": null, "osm_id": 5783703656, "osm_type": "nodes" }, "geometry": { "type": "Point", "coordinates": [ 99.3092281, 6.493001 ] } },
{ "type": "Feature", "properties": { "name": "หาดแหลมทอง", "name:en": null, "amenity": "ferry_terminal", "building": null, "port": null, "operator:type": null, "addr:full": null, "addr:city": null, "source": null, "name:th": "หาดแหลมทอง", "osm_id": 10728801933, "osm_type": "nodes" }, "geometry": { "type": "Point", "coordinates": [ 98.7632669, 7.7770955 ] } },
{ "type": "Feature", "properties": { "name": "วัดมหาบุศย์", "name:en": "Wat Maha But", "amenity": "ferry_terminal", "building": null, "port": null, "operator:type": null, "addr:full": null, "addr:city": null, "source": null, "name:th": "วัดมหาบุศย์", "osm_id": 7829305339, "osm_type": "nodes" }, "geometry": { "type": "Point", "coordinates": [ 100.6064481, 13.7150723 ] } },
{ "type": "Feature", "properties": { "name": null, "name:en": null, "amenity": "ferry_terminal", "building": null, "port": null, "operator:type": null, "addr:full": null, "addr:city": null, "source": null, "name:th": null, "osm_id": 7125713169, "osm_type": "nodes" }, "geometry": { "type": "Point", "coordinates": [ 102.0906228, 6.2364643 ] } },
{ "type": "Feature", "properties": { "name": null, "name:en": null, "amenity": "ferry_terminal", "building": null, "port": null, "operator:type": null, "addr:full": null, "addr:city": null, "source": null, "name:th": null, "osm_id": 2760019411, "osm_type": "nodes" }, "geometry": { "type": "Point", "coordinates": [ 102.0906164, 6.2363023 ] } },
{ "type": "Feature", "properties": { "name": "วัดยาง", "name:en": "Wat Yang", "amenity": "ferry_terminal", "building": null, "port": null, "operator:type": null, "addr:full": null, "addr:city": null, "source": null, "name:th": "วัดยาง", "osm_id": 7829305343, "osm_type": "nodes" }, "geometry": { "type": "Point", "coordinates": [ 100.6199897, 13.7112822 ] } },
{ "type": "Feature", "properties": { "name": "ตลาดเอี่ยมสมบัติ", "name:en": "Talat Iam Sombat", "amenity": "ferry_terminal", "building": null, "port": null, "operator:type": null, "addr:full": null, "addr:city": null, "source": null, "name:th": "ตลาดเอี่ยมสมบัติ", "osm_id": 7829305349, "osm_type": "nodes" }, "geometry": { "type": "Point", "coordinates": [ 100.642852, 13.7157798 ] } },
{ "type": "Feature", "properties": { "name": "สุเหร่าอัลกุ๊บรอ", "name:en": "Surao Al-Kubra", "amenity": "ferry_terminal", "building": null, "port": null, "operator:type": null, "addr:full": null, "addr:city": null, "source": null, "name:th": "สุเหร่าอัลกุ๊บรอ", "osm_id": 7829305374, "osm_type": "nodes" }, "geometry": { "type": "Point", "coordinates": [ 100.6284982, 13.7151987 ] } },
{ "type": "Feature", "properties": { "name": "Talat Minburi Pier", "name:en": null, "amenity": "ferry_terminal", "building": null, "port": null, "operator:type": null, "addr:full": null, "addr:city": null, "source": null, "name:th": null, "osm_id": 9758735123, "osm_type": "nodes" }, "geometry": { "type": "Point", "coordinates": [ 100.7290701, 13.8109446 ] } },
{ "type": "Feature", "properties": { "name": "ท่าเรือวัดขุนพรหม", "name:en": "Wat Khun Phrom Ferry Terminal", "amenity": "ferry_terminal", "building": null, "port": null, "operator:type": null, "addr:full": null, "addr:city": null, "source": null, "name:th": null, "osm_id": 7501363390, "osm_type": "nodes" }, "geometry": { "type": "Point", "coordinates": [ 100.5699311, 14.3468578 ] } },
{ "type": "Feature", "properties": { "name": "มศว ประสานมิตร", "name:en": "Prasanmit", "amenity": "ferry_terminal", "building": null, "port": null, "operator:type": null, "addr:full": null, "addr:city": null, "source": null, "name:th": "มศว ประสานมิตร", "osm_id": 566624462, "osm_type": "nodes" }, "geometry": { "type": "Point", "coordinates": [ 100.5657418, 13.74739 ] } },
{ "type": "Feature", "properties": { "name": "Songkhla Ferry", "name:en": null, "amenity": "ferry_terminal", "building": null, "port": null, "operator:type": null, "addr:full": null, "addr:city": null, "source": "GPS survey", "name:th": null, "osm_id": 985068445, "osm_type": "nodes" }, "geometry": { "type": "Point", "coordinates": [ 100.5797987, 7.2180744 ] } },
{ "type": "Feature", "properties": { "name": "Singhannakhon Ferry", "name:en": null, "amenity": "ferry_terminal", "building": null, "port": null, "operator:type": null, "addr:full": null, "addr:city": null, "source": "GPS survey", "name:th": null, "osm_id": 985068124, "osm_type": "nodes" }, "geometry": { "type": "Point", "coordinates": [ 100.5747577, 7.2210603 ] } },
{ "type": "Feature", "properties": { "name": "นานาชาติ", "name:en": "Nana Chard", "amenity": "ferry_terminal", "building": null, "port": null, "operator:type": null, "addr:full": null, "addr:city": null, "source": null, "name:th": "นานาชาติ", "osm_id": 566623226, "osm_type": "nodes" }, "geometry": { "type": "Point", "coordinates": [ 100.5591191, 13.7483267 ] } },
{ "type": "Feature", "properties": { "name": "บ้านพักข้าราชบริพารติวานนท์", "name:en": "Office Residence Tiwanon", "amenity": "ferry_terminal", "building": null, "port": null, "operator:type": null, "addr:full": null, "addr:city": null, "source": null, "name:th": "บ้านพักข้าราชบริพารติวานนท์", "osm_id": 7791237225, "osm_type": "nodes" }, "geometry": { "type": "Point", "coordinates": [ 100.4909799, 13.8980124 ] } },
{ "type": "Feature", "properties": { "name": "Koh Si Chang", "name:en": null, "amenity": "ferry_terminal", "building": null, "port": null, "operator:type": null, "addr:full": null, "addr:city": null, "source": null, "name:th": null, "osm_id": 4165123316, "osm_type": "nodes" }, "geometry": { "type": "Point", "coordinates": [ 100.8107842, 13.1618628 ] } },
{ "type": "Feature", "properties": { "name": "ท่าเรือเกาะลอย", "name:en": "Ko Loy Pier", "amenity": "ferry_terminal", "building": null, "port": null, "operator:type": null, "addr:full": null, "addr:city": null, "source": null, "name:th": null, "osm_id": 4666507805, "osm_type": "nodes" }, "geometry": { "type": "Point", "coordinates": [ 100.9192485, 13.1751969 ] } },
{ "type": "Feature", "properties": { "name": "ท่าน้ำนนทบุรี", "name:en": "Nonthaburi Pier", "amenity": "ferry_terminal", "building": null, "port": null, "operator:type": null, "addr:full": null, "addr:city": null, "source": null, "name:th": "ท่าน้ำนนทบุรี", "osm_id": 6158344590, "osm_type": "nodes" }, "geometry": { "type": "Point", "coordinates": [ 100.4910036, 13.8421696 ] } },
{ "type": "Feature", "properties": { "name": "ท่าเรือเทศบาลเมืองบางศรีเมือง", "name:en": "Bang Si Mueang Ferry Pier", "amenity": "ferry_terminal", "building": null, "port": null, "operator:type": null, "addr:full": null, "addr:city": null, "source": null, "name:th": "ท่าเรือเทศบาลเมืองบางศรีเมือง", "osm_id": 6549136021, "osm_type": "nodes" }, "geometry": { "type": "Point", "coordinates": [ 100.4892994, 13.8419006 ] } },
{ "type": "Feature", "properties": { "name": "ท่าเรือข้ามฟากท่าฉลอม", "name:en": null, "amenity": "ferry_terminal", "building": null, "port": null, "operator:type": null, "addr:full": null, "addr:city": null, "source": null, "name:th": null, "osm_id": 1183545590, "osm_type": "nodes" }, "geometry": { "type": "Point", "coordinates": [ 100.2745237, 13.5418352 ] } },
{ "type": "Feature", "properties": { "name": null, "name:en": null, "amenity": "ferry_terminal", "building": null, "port": null, "operator:type": null, "addr:full": null, "addr:city": null, "source": null, "name:th": null, "osm_id": 8703561545, "osm_type": "nodes" }, "geometry": { "type": "Point", "coordinates": [ 100.0772966, 15.3293895 ] } },
{ "type": "Feature", "properties": { "name": null, "name:en": null, "amenity": "ferry_terminal", "building": null, "port": null, "operator:type": null, "addr:full": null, "addr:city": null, "source": null, "name:th": null, "osm_id": 1572174557, "osm_type": "nodes" }, "geometry": { "type": "Point", "coordinates": [ 99.9462485, 13.4670647 ] } },
{ "type": "Feature", "properties": { "name": "ท่าเรือวัดระฆังฯ", "name:en": "Wat Rakhang Pier", "amenity": "ferry_terminal", "building": null, "port": null, "operator:type": null, "addr:full": null, "addr:city": null, "source": null, "name:th": null, "osm_id": 2993468033, "osm_type": "nodes" }, "geometry": { "type": "Point", "coordinates": [ 100.486708, 13.7525131 ] } },
{ "type": "Feature", "properties": { "name": "เพชรเกษม 37", "name:en": "Phetchakasem 37", "amenity": "ferry_terminal", "building": null, "port": null, "operator:type": null, "addr:full": null, "addr:city": null, "source": null, "name:th": "เพชรเกษม 37", "osm_id": 7829305301, "osm_type": "nodes" }, "geometry": { "type": "Point", "coordinates": [ 100.4311793, 13.7091445 ] } },
{ "type": "Feature", "properties": { "name": "เกษตรบางแค", "name:en": "Kaset Bang Khae", "amenity": "ferry_terminal", "building": null, "port": null, "operator:type": null, "addr:full": null, "addr:city": null, "source": null, "name:th": "เกษตรบางแค", "osm_id": 7829305304, "osm_type": "nodes" }, "geometry": { "type": "Point", "coordinates": [ 100.4211857, 13.7056321 ] } },
{ "type": "Feature", "properties": { "name": null, "name:en": null, "amenity": "ferry_terminal", "building": null, "port": null, "operator:type": null, "addr:full": null, "addr:city": null, "source": null, "name:th": null, "osm_id": 1347311839, "osm_type": "nodes" }, "geometry": { "type": "Point", "coordinates": [ 99.9963405, 13.407843 ] } },
{ "type": "Feature", "properties": { "name": "ท่าเรือสาทร", "name:en": "Sathon Pier", "amenity": "ferry_terminal", "building": null, "port": null, "operator:type": null, "addr:full": null, "addr:city": null, "source": null, "name:th": "ท่าเรือสาทร", "osm_id": 7829320712, "osm_type": "nodes" }, "geometry": { "type": "Point", "coordinates": [ 100.5128954, 13.7193143 ] } },
{ "type": "Feature", "properties": { "name": null, "name:en": null, "amenity": "ferry_terminal", "building": null, "port": null, "operator:type": null, "addr:full": null, "addr:city": null, "source": null, "name:th": null, "osm_id": 1825494257, "osm_type": "nodes" }, "geometry": { "type": "Point", "coordinates": [ 99.9509535, 9.3737431 ] } },
{ "type": "Feature", "properties": { "name": "สะพานประชารัฐ", "name:en": "Saphan Pracharat", "amenity": "ferry_terminal", "building": null, "port": null, "operator:type": null, "addr:full": null, "addr:city": null, "source": null, "name:th": "สะพานประชารัฐ", "osm_id": 7829305293, "osm_type": "nodes" }, "geometry": { "type": "Point", "coordinates": [ 100.4630925, 13.7203967 ] } },
{ "type": "Feature", "properties": { "name": "ประตูน้ำภาษีเจริญ", "name:en": "Pratunam Phasi Charoen", "amenity": "ferry_terminal", "building": null, "port": null, "operator:type": null, "addr:full": null, "addr:city": null, "source": null, "name:th": "ประตูน้ำภาษีเจริญ", "osm_id": 7829305295, "osm_type": "nodes" }, "geometry": { "type": "Point", "coordinates": [ 100.4681348, 13.7221535 ] } },
{ "type": "Feature", "properties": { "name": "ท่าเรือช่องนนทรี", "name:en": "Chong Nonsi Pier", "amenity": "ferry_terminal", "building": null, "port": null, "operator:type": null, "addr:full": null, "addr:city": null, "source": null, "name:th": null, "osm_id": 2331436115, "osm_type": "nodes" }, "geometry": { "type": "Point", "coordinates": [ 100.5503294, 13.6909014 ] } },
{ "type": "Feature", "properties": { "name": "บางกะปิ", "name:en": "Bangkapi", "amenity": "ferry_terminal", "building": null, "port": null, "operator:type": null, "addr:full": null, "addr:city": null, "source": null, "name:th": "บางกะปิ", "osm_id": 2339057520, "osm_type": "nodes" }, "geometry": { "type": "Point", "coordinates": [ 100.6473896, 13.7650322 ] } },
{ "type": "Feature", "properties": { "name": "ท่าเรือคลองลัดโพธิ์", "name:en": "Khlong Lat Pho Pier", "amenity": "ferry_terminal", "building": null, "port": null, "operator:type": null, "addr:full": null, "addr:city": null, "source": null, "name:th": null, "osm_id": 4561417665, "osm_type": "nodes" }, "geometry": { "type": "Point", "coordinates": [ 100.5387609, 13.6678718 ] } },
{ "type": "Feature", "properties": { "name": "Laem Sok Pier", "name:en": null, "amenity": "ferry_terminal", "building": null, "port": null, "operator:type": null, "addr:full": null, "addr:city": null, "source": null, "name:th": null, "osm_id": 9137422924, "osm_type": "nodes" }, "geometry": { "type": "Point", "coordinates": [ 102.5881279, 12.0362894 ] } },
{ "type": "Feature", "properties": { "name": "Boonsiri ferry", "name:en": null, "amenity": "ferry_terminal", "building": null, "port": null, "operator:type": null, "addr:full": null, "addr:city": null, "source": null, "name:th": null, "osm_id": 3951674447, "osm_type": "nodes" }, "geometry": { "type": "Point", "coordinates": [ 102.5873572, 12.0464802 ] } },
{ "type": "Feature", "properties": { "name": "ท่าเรือสี่พระยา (ประตู 2)", "name:en": "Si Phraya Pier (Gate 2)", "amenity": "ferry_terminal", "building": null, "port": null, "operator:type": null, "addr:full": null, "addr:city": null, "source": null, "name:th": "ท่าเรือสี่พระยา (ประตู 2)", "osm_id": 10726384742, "osm_type": "nodes" }, "geometry": { "type": "Point", "coordinates": [ 100.5129272, 13.729504 ] } },
{ "type": "Feature", "properties": { "name": null, "name:en": "Raja Ferry Donsak Pier", "amenity": "ferry_terminal", "building": null, "port": null, "operator:type": null, "addr:full": null, "addr:city": null, "source": null, "name:th": null, "osm_id": 4704126649, "osm_type": "nodes" }, "geometry": { "type": "Point", "coordinates": [ 99.7449648, 9.3291555 ] } },
{ "type": "Feature", "properties": { "name": "ซีทราน เฟอรี่", "name:en": "Seatran Donsak Pier", "amenity": "ferry_terminal", "building": null, "port": null, "operator:type": null, "addr:full": null, "addr:city": null, "source": null, "name:th": null, "osm_id": 2467337505, "osm_type": "nodes" }, "geometry": { "type": "Point", "coordinates": [ 99.734259, 9.3219079 ] } },
{ "type": "Feature", "properties": { "name": "สะพานเจริญผล", "name:en": "Sapan Charoenpol", "amenity": "ferry_terminal", "building": null, "port": null, "operator:type": null, "addr:full": null, "addr:city": null, "source": null, "name:th": "สะพานเจริญผล", "osm_id": 567013469, "osm_type": "nodes" }, "geometry": { "type": "Point", "coordinates": [ 100.5243125, 13.7498204 ] } },
{ "type": "Feature", "properties": { "name": "บางหว้า", "name:en": "Bang Wa", "amenity": "ferry_terminal", "building": null, "port": null, "operator:type": null, "addr:full": null, "addr:city": null, "source": null, "name:th": "บางหว้า", "osm_id": 6548920526, "osm_type": "nodes" }, "geometry": { "type": "Point", "coordinates": [ 100.45815, 13.7187206 ] } },
{ "type": "Feature", "properties": { "name": "Sattahip", "name:en": null, "amenity": "ferry_terminal", "building": null, "port": null, "operator:type": null, "addr:full": null, "addr:city": null, "source": null, "name:th": null, "osm_id": 9374658815, "osm_type": "nodes" }, "geometry": { "type": "Point", "coordinates": [ 100.9147336, 12.6281004 ] } },
{ "type": "Feature", "properties": { "name": "ท่าเรือ จเด็จ", "name:en": "Jadet Pier", "amenity": "ferry_terminal", "building": null, "port": null, "operator:type": null, "addr:full": null, "addr:city": null, "source": null, "name:th": "ท่าเรือ จเด็จ", "osm_id": 2078709485, "osm_type": "nodes" }, "geometry": { "type": "Point", "coordinates": [ 101.4386266, 12.6239774 ] } },
{ "type": "Feature", "properties": { "name": "Taruhphe Pier", "name:en": null, "amenity": "ferry_terminal", "building": null, "port": null, "operator:type": null, "addr:full": null, "addr:city": null, "source": null, "name:th": null, "osm_id": 2078709686, "osm_type": "nodes" }, "geometry": { "type": "Point", "coordinates": [ 101.4394726, 12.6258074 ] } },
{ "type": "Feature", "properties": { "name": null, "name:en": null, "amenity": "ferry_terminal", "building": null, "port": null, "operator:type": null, "addr:full": null, "addr:city": null, "source": null, "name:th": null, "osm_id": 6084317401, "osm_type": "nodes" }, "geometry": { "type": "Point", "coordinates": [ 98.9529991, 8.0068422 ] } },
{ "type": "Feature", "properties": { "name": "Tha Centrepoint Pier", "name:en": "Center Point Pier", "amenity": "ferry_terminal", "building": null, "port": null, "operator:type": null, "addr:full": null, "addr:city": null, "source": null, "name:th": null, "osm_id": 307385609, "osm_type": "nodes" }, "geometry": { "type": "Point", "coordinates": [ 102.3676157, 12.1890886 ] } },
{ "type": "Feature", "properties": { "name": "Tan Mayom Pier", "name:en": null, "amenity": "ferry_terminal", "building": null, "port": null, "operator:type": null, "addr:full": null, "addr:city": null, "source": null, "name:th": null, "osm_id": 2507794747, "osm_type": "nodes" }, "geometry": { "type": "Point", "coordinates": [ 102.3568857, 12.1099759 ] } },
{ "type": "Feature", "properties": { "name": null, "name:en": null, "amenity": "ferry_terminal", "building": null, "port": null, "operator:type": null, "addr:full": null, "addr:city": null, "source": null, "name:th": null, "osm_id": 776289058, "osm_type": "nodes" }, "geometry": { "type": "Point", "coordinates": [ 102.4023743, 11.9054012 ] } },
{ "type": "Feature", "properties": { "name": null, "name:en": null, "amenity": "ferry_terminal", "building": null, "port": null, "operator:type": null, "addr:full": null, "addr:city": null, "source": null, "name:th": null, "osm_id": 3951674449, "osm_type": "nodes" }, "geometry": { "type": "Point", "coordinates": [ 102.584825, 12.0631515 ] } },
{ "type": "Feature", "properties": { "name": "ท่าเรือข้ามฟากบางศรีเมือง", "name:en": "Bang Si Mueang Ferry Pier", "amenity": "ferry_terminal", "building": null, "port": null, "operator:type": null, "addr:full": null, "addr:city": null, "source": null, "name:th": "ท่าเรือข้ามฟากบางศรีเมือง", "osm_id": 6158336920, "osm_type": "nodes" }, "geometry": { "type": "Point", "coordinates": [ 100.4892735, 13.8418947 ] } },
{ "type": "Feature", "properties": { "name": "ท่าเรือ​ไก่แบ้", "name:en": "Kai Bae Pier", "amenity": "ferry_terminal", "building": null, "port": null, "operator:type": null, "addr:full": null, "addr:city": null, "source": null, "name:th": null, "osm_id": 2384404974, "osm_type": "nodes" }, "geometry": { "type": "Point", "coordinates": [ 102.2897154, 12.0280018 ] } },
{ "type": "Feature", "properties": { "name": "Ko Panyi Pier", "name:en": null, "amenity": "ferry_terminal", "building": null, "port": null, "operator:type": null, "addr:full": null, "addr:city": null, "source": null, "name:th": null, "osm_id": 4783083773, "osm_type": "nodes" }, "geometry": { "type": "Point", "coordinates": [ 98.5047759, 8.3355323 ] } },
{ "type": "Feature", "properties": { "name": "Haad Rin Queen Big Buddha Pier", "name:en": null, "amenity": "ferry_terminal", "building": null, "port": null, "operator:type": null, "addr:full": null, "addr:city": null, "source": null, "name:th": null, "osm_id": 416617359, "osm_type": "nodes" }, "geometry": { "type": "Point", "coordinates": [ 100.0554846, 9.559602 ] } },
{ "type": "Feature", "properties": { "name": null, "name:en": "Haad Rin Mae Nam Pier", "amenity": "ferry_terminal", "building": null, "port": null, "operator:type": null, "addr:full": null, "addr:city": null, "source": "Bing", "name:th": null, "osm_id": 1619706319, "osm_type": "nodes" }, "geometry": { "type": "Point", "coordinates": [ 99.9975265, 9.5715544 ] } },
{ "type": "Feature", "properties": { "name": null, "name:en": null, "amenity": "ferry_terminal", "building": null, "port": null, "operator:type": null, "addr:full": null, "addr:city": null, "source": null, "name:th": null, "osm_id": 2500397728, "osm_type": "nodes" }, "geometry": { "type": "Point", "coordinates": [ 98.5480758, 9.9519966 ] } },
{ "type": "Feature", "properties": { "name": "Lamtaen Ferry", "name:en": null, "amenity": "ferry_terminal", "building": null, "port": null, "operator:type": null, "addr:full": null, "addr:city": null, "source": null, "name:th": null, "osm_id": 7176742669, "osm_type": "nodes" }, "geometry": { "type": "Point", "coordinates": [ 100.0573134, 9.5593701 ] } },
{ "type": "Feature", "properties": { "name": "Thong Nai Pan Express", "name:en": null, "amenity": "ferry_terminal", "building": null, "port": null, "operator:type": null, "addr:full": null, "addr:city": null, "source": null, "name:th": null, "osm_id": 2518618955, "osm_type": "nodes" }, "geometry": { "type": "Point", "coordinates": [ 100.0682442, 9.6758904 ] } },
{ "type": "Feature", "properties": { "name": "ท่าเทียบเรืออ่าวนิด", "name:en": "fishing pier", "amenity": "ferry_terminal", "building": null, "port": null, "operator:type": null, "addr:full": null, "addr:city": null, "source": null, "name:th": null, "osm_id": 1218765469, "osm_type": "nodes" }, "geometry": { "type": "Point", "coordinates": [ 102.4883241, 11.8039344 ] } },
{ "type": "Feature", "properties": { "name": "Makathanee Pier", "name:en": null, "amenity": "ferry_terminal", "building": null, "port": null, "operator:type": null, "addr:full": null, "addr:city": null, "source": null, "name:th": null, "osm_id": 2609803948, "osm_type": "nodes" }, "geometry": { "type": "Point", "coordinates": [ 102.4622075, 11.8130279 ] } },
{ "type": "Feature", "properties": { "name": "ท่าเรือตลิ่งชัน", "name:en": "Taling Chan Pier", "amenity": "ferry_terminal", "building": null, "port": null, "operator:type": null, "addr:full": null, "addr:city": null, "source": null, "name:th": null, "osm_id": 2618522299, "osm_type": "nodes" }, "geometry": { "type": "Point", "coordinates": [ 100.4563684, 13.7758001 ] } },
{ "type": "Feature", "properties": { "name": "วัดสร้อยทอง", "name:en": "Wat Soi Thong", "amenity": "ferry_terminal", "building": null, "port": null, "operator:type": null, "addr:full": null, "addr:city": null, "source": null, "name:th": "วัดสร้อยทอง", "osm_id": 5818119896, "osm_type": "nodes" }, "geometry": { "type": "Point", "coordinates": [ 100.517481, 13.8120953 ] } },
{ "type": "Feature", "properties": { "name": "พระราม 7", "name:en": "Rama 7 Bridge", "amenity": "ferry_terminal", "building": null, "port": null, "operator:type": null, "addr:full": null, "addr:city": null, "source": null, "name:th": "พระราม 7", "osm_id": 1408337608, "osm_type": "nodes" }, "geometry": { "type": "Point", "coordinates": [ 100.5134899, 13.8130256 ] } },
{ "type": "Feature", "properties": { "name": "ชุมชนคลองเจ็ดขนัด", "name:en": "Chumchon Khlong Chet Khanat", "amenity": "ferry_terminal", "building": null, "port": null, "operator:type": null, "addr:full": null, "addr:city": null, "source": null, "name:th": "ชุมชนคลองเจ็ดขนัด", "osm_id": 7829305342, "osm_type": "nodes" }, "geometry": { "type": "Point", "coordinates": [ 100.6156611, 13.7105926 ] } },
{ "type": "Feature", "properties": { "name": "ประตูน้ำ", "name:en": "Pratunam", "amenity": "ferry_terminal", "building": null, "port": null, "operator:type": null, "addr:full": null, "addr:city": null, "source": null, "name:th": "ประตูน้ำ", "osm_id": 567014528, "osm_type": "nodes" }, "geometry": { "type": "Point", "coordinates": [ 100.541208, 13.7493879 ] } },
{ "type": "Feature", "properties": { "name": "ประตูน้ำ", "name:en": "Pratunam", "amenity": "ferry_terminal", "building": null, "port": null, "operator:type": null, "addr:full": null, "addr:city": null, "source": null, "name:th": "ประตูน้ำ", "osm_id": 2321695930, "osm_type": "nodes" }, "geometry": { "type": "Point", "coordinates": [ 100.5412037, 13.7492624 ] } },
{ "type": "Feature", "properties": { "name": null, "name:en": null, "amenity": "ferry_terminal", "building": null, "port": null, "operator:type": null, "addr:full": null, "addr:city": null, "source": null, "name:th": null, "osm_id": 776288678, "osm_type": "nodes" }, "geometry": { "type": "Point", "coordinates": [ 102.5707545, 11.7073508 ] } },
{ "type": "Feature", "properties": { "name": null, "name:en": null, "amenity": "ferry_terminal", "building": null, "port": null, "operator:type": null, "addr:full": null, "addr:city": null, "source": null, "name:th": null, "osm_id": 3720140504, "osm_type": "nodes" }, "geometry": { "type": "Point", "coordinates": [ 99.3031994, 6.4869286 ] } },
{ "type": "Feature", "properties": { "name": "Speedboat Pier", "name:en": null, "amenity": "ferry_terminal", "building": null, "port": null, "operator:type": null, "addr:full": null, "addr:city": null, "source": null, "name:th": null, "osm_id": 2599146972, "osm_type": "nodes" }, "geometry": { "type": "Point", "coordinates": [ 102.5350494, 11.6122935 ] } },
{ "type": "Feature", "properties": { "name": "Tammalang Pier", "name:en": null, "amenity": "ferry_terminal", "building": null, "port": null, "operator:type": null, "addr:full": null, "addr:city": null, "source": null, "name:th": "Tammalang Pier Паром на Лангкави", "osm_id": 2508186670, "osm_type": "nodes" }, "geometry": { "type": "Point", "coordinates": [ 100.0689898, 6.5334263 ] } },
{ "type": "Feature", "properties": { "name": "พรานนก", "name:en": "Prannok", "amenity": "ferry_terminal", "building": null, "port": null, "operator:type": null, "addr:full": null, "addr:city": null, "source": null, "name:th": "พรานนก", "osm_id": 3053005368, "osm_type": "nodes" }, "geometry": { "type": "Point", "coordinates": [ 100.4868725, 13.7563104 ] } },
{ "type": "Feature", "properties": { "name": "Raft Crossing", "name:en": null, "amenity": "ferry_terminal", "building": null, "port": null, "operator:type": null, "addr:full": null, "addr:city": null, "source": null, "name:th": null, "osm_id": 2292085840, "osm_type": "nodes" }, "geometry": { "type": "Point", "coordinates": [ 98.5635331, 15.6462098 ] } },
{ "type": "Feature", "properties": { "name": "ท่าเรือบางกะเจ้า", "name:en": "Bang Kachao Pier", "amenity": "ferry_terminal", "building": null, "port": null, "operator:type": null, "addr:full": null, "addr:city": null, "source": null, "name:th": null, "osm_id": 487075704, "osm_type": "nodes" }, "geometry": { "type": "Point", "coordinates": [ 100.5628107, 13.704289 ] } },
{ "type": "Feature", "properties": { "name": "ท่าเรือคลองลัดหลวง", "name:en": "Khlong Lat Luang Pier", "amenity": "ferry_terminal", "building": null, "port": null, "operator:type": null, "addr:full": null, "addr:city": null, "source": null, "name:th": null, "osm_id": 2393548001, "osm_type": "nodes" }, "geometry": { "type": "Point", "coordinates": [ 100.5277363, 13.6697957 ] } },
{ "type": "Feature", "properties": { "name": "ท่าเรือพระสมุทรเจดีย์", "name:en": "Phra Samut Chedi Pier", "amenity": "ferry_terminal", "building": null, "port": null, "operator:type": null, "addr:full": null, "addr:city": null, "source": null, "name:th": "ท่าเรือพระสมุทรเจดีย์", "osm_id": 3667972113, "osm_type": "nodes" }, "geometry": { "type": "Point", "coordinates": [ 100.5865555, 13.5971751 ] } },
{ "type": "Feature", "properties": { "name": "ท่าเรือวัดคลองเตยนอก", "name:en": "Wat Khlong Toei Nok Pier", "amenity": "ferry_terminal", "building": null, "port": null, "operator:type": null, "addr:full": null, "addr:city": null, "source": null, "name:th": null, "osm_id": 4801299808, "osm_type": "nodes" }, "geometry": { "type": "Point", "coordinates": [ 100.5635823, 13.7072028 ] } },
{ "type": "Feature", "properties": { "name": "เพชรเกษม 31", "name:en": "Phetchakasem 31", "amenity": "ferry_terminal", "building": null, "port": null, "operator:type": null, "addr:full": null, "addr:city": null, "source": null, "name:th": "เพชรเกษม 31", "osm_id": 7829305297, "osm_type": "nodes" }, "geometry": { "type": "Point", "coordinates": [ 100.4449103, 13.7139955 ] } },
{ "type": "Feature", "properties": { "name": "เพชรเกษม 39", "name:en": "Phetchakasem 39", "amenity": "ferry_terminal", "building": null, "port": null, "operator:type": null, "addr:full": null, "addr:city": null, "source": null, "name:th": "เพชรเกษม 39", "osm_id": 7829305302, "osm_type": "nodes" }, "geometry": { "type": "Point", "coordinates": [ 100.4291649, 13.7084408 ] } },
{ "type": "Feature", "properties": { "name": "วัดนิมมานรดี", "name:en": "Wat Nimmanoradi", "amenity": "ferry_terminal", "building": null, "port": null, "operator:type": null, "addr:full": null, "addr:city": null, "source": null, "name:th": "วัดนิมมานรดี", "osm_id": 7829305303, "osm_type": "nodes" }, "geometry": { "type": "Point", "coordinates": [ 100.4269942, 13.707651 ] } },
{ "type": "Feature", "properties": { "name": "สะพานกาญจนาภิเษก", "name:en": "Saphan Kanchanaphisek", "amenity": "ferry_terminal", "building": null, "port": null, "operator:type": null, "addr:full": null, "addr:city": null, "source": null, "name:th": "สะพานกาญจนาภิเษก", "osm_id": 7829305306, "osm_type": "nodes" }, "geometry": { "type": "Point", "coordinates": [ 100.4063211, 13.7003061 ] } },
{ "type": "Feature", "properties": { "name": "วัดม่วง", "name:en": "Wat Muang", "amenity": "ferry_terminal", "building": null, "port": null, "operator:type": null, "addr:full": null, "addr:city": null, "source": null, "name:th": "วัดม่วง", "osm_id": 7829305307, "osm_type": "nodes" }, "geometry": { "type": "Point", "coordinates": [ 100.3925572, 13.6954285 ] } },
{ "type": "Feature", "properties": { "name": "พระโขนง", "name:en": "Phra Khanong", "amenity": "ferry_terminal", "building": null, "port": null, "operator:type": null, "addr:full": null, "addr:city": null, "source": null, "name:th": "พระโขนง", "osm_id": 7829305337, "osm_type": "nodes" }, "geometry": { "type": "Point", "coordinates": [ 100.5973038, 13.7112138 ] } },
{ "type": "Feature", "properties": { "name": "สุเหร่าอัลเอี๊ยะติซอม", "name:en": "Surao Al Iatisorm", "amenity": "ferry_terminal", "building": null, "port": null, "operator:type": null, "addr:full": null, "addr:city": null, "source": null, "name:th": "สุเหร่าอัลเอี๊ยะติซอม", "osm_id": 7829305348, "osm_type": "nodes" }, "geometry": { "type": "Point", "coordinates": [ 100.6394622, 13.7150918 ] } },
{ "type": "Feature", "properties": { "name": "ท่าเรือพระปิ่นเกล้า (ฝั่งพระนคร)", "name:en": "Phra Pin Klao Pier (Phra Nakhon)", "amenity": "ferry_terminal", "building": null, "port": null, "operator:type": null, "addr:full": null, "addr:city": null, "source": null, "name:th": null, "osm_id": 1730560919, "osm_type": "nodes" }, "geometry": { "type": "Point", "coordinates": [ 100.4916887, 13.7614233 ] } },
{ "type": "Feature", "properties": { "name": "ท่าเรือตาเลื่อน", "name:en": "Ta Luean Pier", "amenity": "ferry_terminal", "building": null, "port": null, "operator:type": null, "addr:full": null, "addr:city": null, "source": null, "name:th": null, "osm_id": 1795297733, "osm_type": "nodes" }, "geometry": { "type": "Point", "coordinates": [ 100.5800076, 13.6731731 ] } },
{ "type": "Feature", "properties": { "name": "Asiatique", "name:en": "Asiatique", "amenity": "ferry_terminal", "building": null, "port": null, "operator:type": null, "addr:full": null, "addr:city": null, "source": null, "name:th": null, "osm_id": 2074694261, "osm_type": "nodes" }, "geometry": { "type": "Point", "coordinates": [ 100.5016875, 13.7049496 ] } },
{ "type": "Feature", "properties": { "name": "วัดอ่างแก้ว", "name:en": "Wat Ang Kaeo", "amenity": "ferry_terminal", "building": null, "port": null, "operator:type": null, "addr:full": null, "addr:city": null, "source": null, "name:th": "วัดอ่างแก้ว", "osm_id": 7829305296, "osm_type": "nodes" }, "geometry": { "type": "Point", "coordinates": [ 100.4544451, 13.7172143 ] } },
{ "type": "Feature", "properties": { "name": "สวนหลวง", "name:en": "Suan Luang", "amenity": "ferry_terminal", "building": null, "port": null, "operator:type": null, "addr:full": null, "addr:city": null, "source": null, "name:th": "สวนหลวง", "osm_id": 7829305340, "osm_type": "nodes" }, "geometry": { "type": "Point", "coordinates": [ 100.6119323, 13.715647 ] } },
{ "type": "Feature", "properties": { "name": "วัดทองใน", "name:en": "Wat Thong Nai", "amenity": "ferry_terminal", "building": null, "port": null, "operator:type": null, "addr:full": null, "addr:city": null, "source": null, "name:th": "วัดทองใน", "osm_id": 7829305344, "osm_type": "nodes" }, "geometry": { "type": "Point", "coordinates": [ 100.6214224, 13.7117263 ] } },
{ "type": "Feature", "properties": { "name": "ท่าเรือวัดทองธรรมชาติ", "name:en": "Wat Thong Thammachat Pier", "amenity": "ferry_terminal", "building": null, "port": null, "operator:type": null, "addr:full": null, "addr:city": null, "source": null, "name:th": null, "osm_id": 7829320722, "osm_type": "nodes" }, "geometry": { "type": "Point", "coordinates": [ 100.5082762, 13.7352241 ] } },
{ "type": "Feature", "properties": { "name": "ท่าเรือสวัสดี", "name:en": "Sawatdi Pier", "amenity": "ferry_terminal", "building": null, "port": null, "operator:type": null, "addr:full": null, "addr:city": null, "source": null, "name:th": null, "osm_id": 7829320737, "osm_type": "nodes" }, "geometry": { "type": "Point", "coordinates": [ 100.5093037, 13.7362183 ] } },
{ "type": "Feature", "properties": { "name": "วัดใหม่ช่องลม", "name:en": "Wat Mai Chonglom", "amenity": "ferry_terminal", "building": null, "port": null, "operator:type": null, "addr:full": null, "addr:city": null, "source": null, "name:th": "วัดใหม่ช่องลม", "osm_id": 566629891, "osm_type": "nodes" }, "geometry": { "type": "Point", "coordinates": [ 100.5743712, 13.7457066 ] } },
{ "type": "Feature", "properties": { "name": "ซอยทองหล่อ", "name:en": "Soi Thonglor", "amenity": "ferry_terminal", "building": null, "port": null, "operator:type": null, "addr:full": null, "addr:city": null, "source": null, "name:th": "ซอยทองหล่อ", "osm_id": 566630007, "osm_type": "nodes" }, "geometry": { "type": "Point", "coordinates": [ 100.5858879, 13.743191 ] } },
{ "type": "Feature", "properties": { "name": "สะพานคลองตัน", "name:en": "Sapan Klongtun", "amenity": "ferry_terminal", "building": null, "port": null, "operator:type": null, "addr:full": null, "addr:city": null, "source": null, "name:th": "สะพานคลองตัน", "osm_id": 566630278, "osm_type": "nodes" }, "geometry": { "type": "Point", "coordinates": [ 100.5982639, 13.741912 ] } },
{ "type": "Feature", "properties": { "name": "รามคำแหง 29", "name:en": "Ramkhamhaeng 29", "amenity": "ferry_terminal", "building": null, "port": null, "operator:type": null, "addr:full": null, "addr:city": null, "source": null, "name:th": "รามคำแหง 29", "osm_id": 566630861, "osm_type": "nodes" }, "geometry": { "type": "Point", "coordinates": [ 100.6115814, 13.7578217 ] } },
{ "type": "Feature", "properties": { "name": "ม.รามคำแหง", "name:en": "Ramkhamhaeng", "amenity": "ferry_terminal", "building": null, "port": null, "operator:type": null, "addr:full": null, "addr:city": null, "source": null, "name:th": "ม.รามคำแหง", "osm_id": 566631207, "osm_type": "nodes" }, "geometry": { "type": "Point", "coordinates": [ 100.6183156, 13.761527 ] } },
{ "type": "Feature", "properties": { "name": "ร.ร.วิจิตร", "name:en": "Vijit School", "amenity": "ferry_terminal", "building": null, "port": null, "operator:type": null, "addr:full": null, "addr:city": null, "source": null, "name:th": "ร.ร.วิจิตร", "osm_id": 2330683327, "osm_type": "nodes" }, "geometry": { "type": "Point", "coordinates": [ 100.5940718, 13.741483 ] } },
{ "type": "Feature", "properties": { "name": "สะพานมิตรมหาดไทย", "name:en": "Sapan Mit Mahadthai", "amenity": "ferry_terminal", "building": null, "port": null, "operator:type": null, "addr:full": null, "addr:city": null, "source": null, "name:th": "สะพานมิตรมหาดไทย", "osm_id": 2339057521, "osm_type": "nodes" }, "geometry": { "type": "Point", "coordinates": [ 100.6236947, 13.762165 ] } },
{ "type": "Feature", "properties": { "name": "ชาญอิสสระ", "name:en": "Charn Issara", "amenity": "ferry_terminal", "building": null, "port": null, "operator:type": null, "addr:full": null, "addr:city": null, "source": null, "name:th": "ชาญอิสสระ", "osm_id": 2519640795, "osm_type": "nodes" }, "geometry": { "type": "Point", "coordinates": [ 100.5884556, 13.7426935 ] } },
{ "type": "Feature", "properties": { "name": "ประตูน้ำ", "name:en": "Pratunam", "amenity": "ferry_terminal", "building": null, "port": null, "operator:type": null, "addr:full": null, "addr:city": null, "source": null, "name:th": "ประตูน้ำ", "osm_id": 566622414, "osm_type": "nodes" }, "geometry": { "type": "Point", "coordinates": [ 100.5414931, 13.7493577 ] } },
{ "type": "Feature", "properties": { "name": "สะพานวิทยุ", "name:en": "Wireless", "amenity": "ferry_terminal", "building": null, "port": null, "operator:type": null, "addr:full": null, "addr:city": null, "source": null, "name:th": "สะพานวิทยุ", "osm_id": 566622771, "osm_type": "nodes" }, "geometry": { "type": "Point", "coordinates": [ 100.5481846, 13.7482674 ] } },
{ "type": "Feature", "properties": { "name": "อิตัลไทย", "name:en": "Italthai", "amenity": "ferry_terminal", "building": null, "port": null, "operator:type": null, "addr:full": null, "addr:city": null, "source": null, "name:th": "อิตัลไทย", "osm_id": 566629748, "osm_type": "nodes" }, "geometry": { "type": "Point", "coordinates": [ 100.5734809, 13.7459225 ] } },
{ "type": "Feature", "properties": { "name": "รามหนึ่ง", "name:en": "Ramnueng", "amenity": "ferry_terminal", "building": null, "port": null, "operator:type": null, "addr:full": null, "addr:city": null, "source": null, "name:th": "รามหนึ่ง", "osm_id": 7812385553, "osm_type": "nodes" }, "geometry": { "type": "Point", "coordinates": [ 100.5988984, 13.7433182 ] } },
{ "type": "Feature", "properties": { "name": "พระราม 8", "name:en": "Rama 8 Bridge", "amenity": "ferry_terminal", "building": null, "port": null, "operator:type": null, "addr:full": null, "addr:city": null, "source": null, "name:th": "พระราม 8", "osm_id": 1408390195, "osm_type": "nodes" }, "geometry": { "type": "Point", "coordinates": [ 100.4975722, 13.76763 ] } },
{ "type": "Feature", "properties": { "name": "วัดราชสิงขร", "name:en": "Wat Rajsingkorn", "amenity": "ferry_terminal", "building": null, "port": null, "operator:type": null, "addr:full": null, "addr:city": null, "source": null, "name:th": "วัดราชสิงขร", "osm_id": 1408524159, "osm_type": "nodes" }, "geometry": { "type": "Point", "coordinates": [ 100.503845, 13.7065388 ] } },
{ "type": "Feature", "properties": { "name": "วัดตึก", "name:en": "Wat Tuek", "amenity": "ferry_terminal", "building": null, "port": null, "operator:type": null, "addr:full": null, "addr:city": null, "source": null, "name:th": null, "osm_id": 7791237224, "osm_type": "nodes" }, "geometry": { "type": "Point", "coordinates": [ 100.4988743, 13.8245003 ] } },
{ "type": "Feature", "properties": { "name": null, "name:en": null, "amenity": "ferry_terminal", "building": null, "port": null, "operator:type": null, "addr:full": null, "addr:city": null, "source": null, "name:th": null, "osm_id": 2537447277, "osm_type": "nodes" }, "geometry": { "type": "Point", "coordinates": [ 100.4548344, 20.2068094 ] } },
{ "type": "Feature", "properties": { "name": null, "name:en": null, "amenity": "ferry_terminal", "building": null, "port": null, "operator:type": null, "addr:full": null, "addr:city": null, "source": null, "name:th": null, "osm_id": 5286790555, "osm_type": "nodes" }, "geometry": { "type": "Point", "coordinates": [ 100.4504207, 20.2052238 ] } },
{ "type": "Feature", "properties": { "name": null, "name:en": null, "amenity": "ferry_terminal", "building": null, "port": null, "operator:type": null, "addr:full": null, "addr:city": null, "source": null, "name:th": null, "osm_id": 2321378619, "osm_type": "nodes" }, "geometry": { "type": "Point", "coordinates": [ 99.8256878, 19.9194824 ] } },
{ "type": "Feature", "properties": { "name": null, "name:en": null, "amenity": "ferry_terminal", "building": null, "port": null, "operator:type": null, "addr:full": null, "addr:city": null, "source": null, "name:th": null, "osm_id": 9456440146, "osm_type": "nodes" }, "geometry": { "type": "Point", "coordinates": [ 102.5255998, 17.9721486 ] } },
{ "type": "Feature", "properties": { "name": null, "name:en": null, "amenity": "ferry_terminal", "building": null, "port": null, "operator:type": null, "addr:full": null, "addr:city": null, "source": null, "name:th": null, "osm_id": 2108715144, "osm_type": "nodes" }, "geometry": { "type": "Point", "coordinates": [ 101.6668213, 17.8997201 ] } },
{ "type": "Feature", "properties": { "name": null, "name:en": null, "amenity": "ferry_terminal", "building": null, "port": null, "operator:type": null, "addr:full": null, "addr:city": null, "source": null, "name:th": null, "osm_id": 2425131959, "osm_type": "nodes" }, "geometry": { "type": "Point", "coordinates": [ 100.4105155, 20.2761854 ] } },
{ "type": "Feature", "properties": { "name": "South Sirkit Dam Ferry", "name:en": null, "amenity": "ferry_terminal", "building": null, "port": null, "operator:type": null, "addr:full": null, "addr:city": null, "source": null, "name:th": null, "osm_id": 301347563, "osm_type": "nodes" }, "geometry": { "type": "Point", "coordinates": [ 100.6920068, 18.0483079 ] } },
{ "type": "Feature", "properties": { "name": "North Sirkit Dam Ferry (poss closed)", "name:en": null, "amenity": "ferry_terminal", "building": null, "port": null, "operator:type": null, "addr:full": null, "addr:city": null, "source": null, "name:th": null, "osm_id": 1110387810, "osm_type": "nodes" }, "geometry": { "type": "Point", "coordinates": [ 100.6797682, 18.053259 ] } },
{ "type": "Feature", "properties": { "name": "South Sirkit Dam Ferry", "name:en": null, "amenity": "ferry_terminal", "building": null, "port": null, "operator:type": null, "addr:full": null, "addr:city": null, "source": null, "name:th": null, "osm_id": 4000023459, "osm_type": "nodes" }, "geometry": { "type": "Point", "coordinates": [ 100.6920068, 18.0483955 ] } },
{ "type": "Feature", "properties": { "name": "North Sirkit Dam Ferry (Motorcycles)", "name:en": null, "amenity": "ferry_terminal", "building": null, "port": null, "operator:type": null, "addr:full": null, "addr:city": null, "source": null, "name:th": null, "osm_id": 4437197563, "osm_type": "nodes" }, "geometry": { "type": "Point", "coordinates": [ 100.6823439, 18.0530229 ] } },
{ "type": "Feature", "properties": { "name": null, "name:en": null, "amenity": "ferry_terminal", "building": null, "port": null, "operator:type": null, "addr:full": null, "addr:city": null, "source": null, "name:th": null, "osm_id": 2425131957, "osm_type": "nodes" }, "geometry": { "type": "Point", "coordinates": [ 100.4063165, 20.2756231 ] } },
{ "type": "Feature", "properties": { "name": null, "name:en": null, "amenity": "ferry_terminal", "building": null, "port": null, "operator:type": null, "addr:full": null, "addr:city": null, "source": null, "name:th": null, "osm_id": 912501377, "osm_type": "nodes" }, "geometry": { "type": "Point", "coordinates": [ 103.6167799, 18.3958993 ] } },
{ "type": "Feature", "properties": { "name": null, "name:en": null, "amenity": "ferry_terminal", "building": null, "port": null, "operator:type": null, "addr:full": null, "addr:city": null, "source": null, "name:th": null, "osm_id": 951344329, "osm_type": "nodes" }, "geometry": { "type": "Point", "coordinates": [ 99.1510414, 14.5566278 ] } },
{ "type": "Feature", "properties": { "name": null, "name:en": null, "amenity": "ferry_terminal", "building": null, "port": null, "operator:type": null, "addr:full": null, "addr:city": null, "source": null, "name:th": null, "osm_id": 951344326, "osm_type": "nodes" }, "geometry": { "type": "Point", "coordinates": [ 99.1558207, 14.5513592 ] } },
{ "type": "Feature", "properties": { "name": null, "name:en": null, "amenity": "ferry_terminal", "building": null, "port": null, "operator:type": null, "addr:full": null, "addr:city": null, "source": null, "name:th": null, "osm_id": 8703561546, "osm_type": "nodes" }, "geometry": { "type": "Point", "coordinates": [ 100.0764083, 15.330181 ] } },
{ "type": "Feature", "properties": { "name": "ท่าเรือวัดขุนพรหม", "name:en": "Wat Khun Phrom Ferry Terminal", "amenity": "ferry_terminal", "building": null, "port": null, "operator:type": null, "addr:full": null, "addr:city": null, "source": null, "name:th": null, "osm_id": 7501363385, "osm_type": "nodes" }, "geometry": { "type": "Point", "coordinates": [ 100.5699534, 14.3476347 ] } },
{ "type": "Feature", "properties": { "name": "Koh Lanta", "name:en": null, "amenity": "ferry_terminal", "building": null, "port": null, "operator:type": null, "addr:full": null, "addr:city": null, "source": null, "name:th": null, "osm_id": 585126702, "osm_type": "nodes" }, "geometry": { "type": "Point", "coordinates": [ 99.0900688, 7.6823683 ] } },
{ "type": "Feature", "properties": { "name": null, "name:en": null, "amenity": "ferry_terminal", "building": null, "port": null, "operator:type": null, "addr:full": null, "addr:city": null, "source": null, "name:th": null, "osm_id": 12672818534, "osm_type": "nodes" }, "geometry": { "type": "Point", "coordinates": [ 98.9324044, 8.0562809 ] } },
{ "type": "Feature", "properties": { "name": "ท่ามะเนาะ", "name:en": "Manoh Pier", "amenity": "ferry_terminal", "building": null, "port": null, "operator:type": null, "addr:full": null, "addr:city": null, "source": null, "name:th": "ท่ามะเนาะ", "osm_id": 2415555147, "osm_type": "nodes" }, "geometry": { "type": "Point", "coordinates": [ 98.5871526, 8.093507 ] } },
{ "type": "Feature", "properties": { "name": "เขาหลัก (ทับละมุ)", "name:en": null, "amenity": "ferry_terminal", "building": null, "port": null, "operator:type": null, "addr:full": null, "addr:city": null, "source": null, "name:th": "เขาหลัก (ทับละมุ)", "osm_id": 2466095538, "osm_type": "nodes" }, "geometry": { "type": "Point", "coordinates": [ 98.2232547, 8.5701086 ] } },
{ "type": "Feature", "properties": { "name": null, "name:en": null, "amenity": "ferry_terminal", "building": null, "port": null, "operator:type": null, "addr:full": null, "addr:city": null, "source": null, "name:th": null, "osm_id": 8520194324, "osm_type": "nodes" }, "geometry": { "type": "Point", "coordinates": [ 104.7918275, 17.3971967 ] } },
{ "type": "Feature", "properties": { "name": null, "name:en": null, "amenity": "ferry_terminal", "building": null, "port": null, "operator:type": null, "addr:full": null, "addr:city": null, "source": null, "name:th": null, "osm_id": 920031173, "osm_type": "nodes" }, "geometry": { "type": "Point", "coordinates": [ 104.8019448, 17.3970662 ] } },
{ "type": "Feature", "properties": { "name": "ท่าเรือวัดพนัญเชิง", "name:en": "Wat Phananchoeng Ferry Terminal", "amenity": "ferry_terminal", "building": null, "port": null, "operator:type": null, "addr:full": null, "addr:city": null, "source": null, "name:th": null, "osm_id": 1726998486, "osm_type": "nodes" }, "geometry": { "type": "Point", "coordinates": [ 100.5779494, 14.3448087 ] } },
{ "type": "Feature", "properties": { "name": "ท่าเรือวัดบางกะจะ", "name:en": "Wat Bang Kacha Ferry Terminal", "amenity": "ferry_terminal", "building": null, "port": null, "operator:type": null, "addr:full": null, "addr:city": null, "source": null, "name:th": null, "osm_id": 1726998475, "osm_type": "nodes" }, "geometry": { "type": "Point", "coordinates": [ 100.5758464, 14.3447626 ] } },
{ "type": "Feature", "properties": { "name": "ท่าเรือวัดพนัญเชิง", "name:en": "Wat Phananchoeng Ferry Terminal", "amenity": "ferry_terminal", "building": null, "port": null, "operator:type": null, "addr:full": null, "addr:city": null, "source": null, "name:th": null, "osm_id": 3168704005, "osm_type": "nodes" }, "geometry": { "type": "Point", "coordinates": [ 100.5783554, 14.3456676 ] } },
{ "type": "Feature", "properties": { "name": "ท่าเรือป้อมเพชร", "name:en": "Phet Fort Ferry Terminal", "amenity": "ferry_terminal", "building": null, "port": null, "operator:type": null, "addr:full": null, "addr:city": null, "source": null, "name:th": null, "osm_id": 6699931676, "osm_type": "nodes" }, "geometry": { "type": "Point", "coordinates": [ 100.5767253, 14.345826 ] } },
{ "type": "Feature", "properties": { "name": null, "name:en": null, "amenity": "ferry_terminal", "building": null, "port": null, "operator:type": null, "addr:full": null, "addr:city": null, "source": null, "name:th": null, "osm_id": 7501363392, "osm_type": "nodes" }, "geometry": { "type": "Point", "coordinates": [ 100.5749158, 14.3669254 ] } },
{ "type": "Feature", "properties": { "name": null, "name:en": null, "amenity": "ferry_terminal", "building": null, "port": null, "operator:type": null, "addr:full": null, "addr:city": null, "source": null, "name:th": null, "osm_id": 6310499478, "osm_type": "nodes" }, "geometry": { "type": "Point", "coordinates": [ 99.0578728, 14.6659986 ] } },
{ "type": "Feature", "properties": { "name": "ท่าเรือศาลาด่าน", "name:en": "Sala Dan Pier", "amenity": "ferry_terminal", "building": null, "port": null, "operator:type": null, "addr:full": null, "addr:city": null, "source": null, "name:th": "ท่าเรือศาลาด่าน", "osm_id": 260742654, "osm_type": "nodes" }, "geometry": { "type": "Point", "coordinates": [ 99.0411579, 7.64875 ] } },
{ "type": "Feature", "properties": { "name": null, "name:en": "Koh Phi Phi", "amenity": "ferry_terminal", "building": null, "port": null, "operator:type": null, "addr:full": null, "addr:city": null, "source": null, "name:th": null, "osm_id": 3233091096, "osm_type": "nodes" }, "geometry": { "type": "Point", "coordinates": [ 98.7704546, 7.7373725 ] } },
{ "type": "Feature", "properties": { "name": null, "name:en": null, "amenity": "ferry_terminal", "building": null, "port": null, "operator:type": null, "addr:full": null, "addr:city": null, "source": null, "name:th": null, "osm_id": 7287932217, "osm_type": "nodes" }, "geometry": { "type": "Point", "coordinates": [ 99.0978604, 7.5328147 ] } },
{ "type": "Feature", "properties": { "name": null, "name:en": null, "amenity": "ferry_terminal", "building": null, "port": null, "operator:type": null, "addr:full": null, "addr:city": null, "source": null, "name:th": null, "osm_id": 9844151169, "osm_type": "nodes" }, "geometry": { "type": "Point", "coordinates": [ 98.521321, 16.835971 ] } },
{ "type": "Feature", "properties": { "name": null, "name:en": null, "amenity": "ferry_terminal", "building": null, "port": null, "operator:type": null, "addr:full": null, "addr:city": null, "source": null, "name:th": null, "osm_id": 7626228593, "osm_type": "nodes" }, "geometry": { "type": "Point", "coordinates": [ 98.535117, 16.8300242 ] } },
{ "type": "Feature", "properties": { "name": null, "name:en": null, "amenity": "ferry_terminal", "building": null, "port": null, "operator:type": null, "addr:full": null, "addr:city": null, "source": null, "name:th": null, "osm_id": 7626228591, "osm_type": "nodes" }, "geometry": { "type": "Point", "coordinates": [ 98.5346027, 16.8296314 ] } },
{ "type": "Feature", "properties": { "name": null, "name:en": null, "amenity": "ferry_terminal", "building": null, "port": null, "operator:type": null, "addr:full": null, "addr:city": null, "source": null, "name:th": null, "osm_id": 9844151168, "osm_type": "nodes" }, "geometry": { "type": "Point", "coordinates": [ 98.5205488, 16.8355657 ] } },
{ "type": "Feature", "properties": { "name": "Pha Luad", "name:en": null, "amenity": "ferry_terminal", "building": null, "port": null, "operator:type": null, "addr:full": null, "addr:city": null, "source": null, "name:th": null, "osm_id": 6919465667, "osm_type": "nodes" }, "geometry": { "type": "Point", "coordinates": [ 98.8032112, 15.9788135 ] } },
{ "type": "Feature", "properties": { "name": "Tha Thammachat Car Ferry Pier", "name:en": "Ao Thammachat Car Ferry Pier", "amenity": "ferry_terminal", "building": null, "port": null, "operator:type": null, "addr:full": null, "addr:city": null, "source": null, "name:th": "ท่าเรืออ่าว​ธรรมชาติ", "osm_id": 325802036, "osm_type": "nodes" }, "geometry": { "type": "Point", "coordinates": [ 102.3013974, 12.1871329 ] } },
{ "type": "Feature", "properties": { "name": "Bang Rong Pier", "name:en": null, "amenity": "ferry_terminal", "building": null, "port": null, "operator:type": null, "addr:full": null, "addr:city": null, "source": null, "name:th": null, "osm_id": 485657809, "osm_type": "nodes" }, "geometry": { "type": "Point", "coordinates": [ 98.4159974, 8.0496671 ] } },
{ "type": "Feature", "properties": { "name": "เกาะพีพี", "name:en": "Koh Phi Phi", "amenity": "ferry_terminal", "building": null, "port": null, "operator:type": null, "addr:full": null, "addr:city": null, "source": null, "name:th": "เกาะพีพี", "osm_id": 265688605, "osm_type": "nodes" }, "geometry": { "type": "Point", "coordinates": [ 98.7708556, 7.7374096 ] } },
{ "type": "Feature", "properties": { "name": "ท่าเรือ ท่าตอน", "name:en": "Boat Landing Thaton", "amenity": "ferry_terminal", "building": null, "port": null, "operator:type": null, "addr:full": null, "addr:city": null, "source": null, "name:th": "ท่าเรือ ท่าตอน", "osm_id": 563598369, "osm_type": "nodes" }, "geometry": { "type": "Point", "coordinates": [ 99.3627128, 20.0603967 ] } },
{ "type": "Feature", "properties": { "name": "Lolae Yai Community Pier", "name:en": null, "amenity": "ferry_terminal", "building": null, "port": null, "operator:type": null, "addr:full": null, "addr:city": null, "source": null, "name:th": null, "osm_id": 9758722613, "osm_type": "nodes" }, "geometry": { "type": "Point", "coordinates": [ 100.6956592, 13.7924627 ] } },
{ "type": "Feature", "properties": { "name": "Khet Minburi Pier", "name:en": null, "amenity": "ferry_terminal", "building": null, "port": null, "operator:type": null, "addr:full": null, "addr:city": null, "source": null, "name:th": null, "osm_id": 9758735125, "osm_type": "nodes" }, "geometry": { "type": "Point", "coordinates": [ 100.731232, 13.8120955 ] } },
{ "type": "Feature", "properties": { "name": "มหาราช", "name:en": "Maharaj", "amenity": "ferry_terminal", "building": null, "port": null, "operator:type": null, "addr:full": null, "addr:city": null, "source": null, "name:th": "มหาราช", "osm_id": 1905838341, "osm_type": "nodes" }, "geometry": { "type": "Point", "coordinates": [ 100.4884271, 13.7544784 ] } },
{ "type": "Feature", "properties": { "name": "ท่าเรือบ้านหัวหิน", "name:en": "Hua Hin Pier", "amenity": "ferry_terminal", "building": null, "port": null, "operator:type": null, "addr:full": null, "addr:city": null, "source": null, "name:th": "ท่าเรือบ้านหัวหิน", "osm_id": 639288993, "osm_type": "nodes" }, "geometry": { "type": "Point", "coordinates": [ 99.0992049, 7.6930427 ] } },
{ "type": "Feature", "properties": { "name": "ท่าเขา", "name:en": "Tha Khao Pier", "amenity": "ferry_terminal", "building": null, "port": null, "operator:type": null, "addr:full": null, "addr:city": null, "source": null, "name:th": "ท่าเขา", "osm_id": 485637238, "osm_type": "nodes" }, "geometry": { "type": "Point", "coordinates": [ 98.6273603, 8.1342482 ] } },
{ "type": "Feature", "properties": { "name": "ท่าเรือวัดอรุณฯ", "name:en": "Wat Arun Pier", "amenity": "ferry_terminal", "building": null, "port": null, "operator:type": null, "addr:full": null, "addr:city": null, "source": null, "name:th": "ท่าเรือวัดอรุณฯ", "osm_id": 3493488226, "osm_type": "nodes" }, "geometry": { "type": "Point", "coordinates": [ 100.4892081, 13.7449657 ] } },
{ "type": "Feature", "properties": { "name": "วัดอรุณราชวราราม (Pier 1)", "name:en": "Wat Arun Ratchawararam (Pier 1)", "amenity": "ferry_terminal", "building": null, "port": null, "operator:type": null, "addr:full": null, "addr:city": null, "source": null, "name:th": null, "osm_id": 6463773574, "osm_type": "nodes" }, "geometry": { "type": "Point", "coordinates": [ 100.4899411, 13.7438761 ] } },
{ "type": "Feature", "properties": { "name": null, "name:en": null, "amenity": "ferry_terminal", "building": null, "port": null, "operator:type": null, "addr:full": null, "addr:city": null, "source": null, "name:th": null, "osm_id": 11133849513, "osm_type": "nodes" }, "geometry": { "type": "Point", "coordinates": [ 98.5430592, 16.8193491 ] } },
{ "type": "Feature", "properties": { "name": null, "name:en": null, "amenity": "ferry_terminal", "building": null, "port": null, "operator:type": null, "addr:full": null, "addr:city": null, "source": null, "name:th": null, "osm_id": 11133849534, "osm_type": "nodes" }, "geometry": { "type": "Point", "coordinates": [ 98.539007, 16.8109951 ] } },
{ "type": "Feature", "properties": { "name": null, "name:en": null, "amenity": "ferry_terminal", "building": null, "port": null, "operator:type": null, "addr:full": null, "addr:city": null, "source": null, "name:th": null, "osm_id": 11133821704, "osm_type": "nodes" }, "geometry": { "type": "Point", "coordinates": [ 98.5430072, 16.8184515 ] } },
{ "type": "Feature", "properties": { "name": "ท่าเรือวัดสุวรรณ", "name:en": "Wat Suwan Pier", "amenity": "ferry_terminal", "building": null, "port": null, "operator:type": null, "addr:full": null, "addr:city": null, "source": null, "name:th": "ท่าเรือวัดสุวรรณ", "osm_id": 3946362036, "osm_type": "nodes" }, "geometry": { "type": "Point", "coordinates": [ 100.511844, 13.7240879 ] } },
{ "type": "Feature", "properties": { "name": "ท่าเรือตาแหวน", "name:en": "Ta Waen Pier", "amenity": "ferry_terminal", "building": null, "port": null, "operator:type": null, "addr:full": null, "addr:city": null, "source": null, "name:th": "ท่าเรือตาแหวน", "osm_id": 1199398742, "osm_type": "nodes" }, "geometry": { "type": "Point", "coordinates": [ 100.7750083, 12.9274895 ] } },
{ "type": "Feature", "properties": { "name": "ราชวงศ์", "name:en": "Ratchawong N 5", "amenity": "ferry_terminal", "building": null, "port": null, "operator:type": null, "addr:full": null, "addr:city": null, "source": null, "name:th": "ราชวงศ์", "osm_id": 974438658, "osm_type": "nodes" }, "geometry": { "type": "Point", "coordinates": [ 100.5043482, 13.7384244 ] } },
{ "type": "Feature", "properties": { "name": null, "name:en": null, "amenity": "ferry_terminal", "building": null, "port": null, "operator:type": null, "addr:full": null, "addr:city": null, "source": null, "name:th": null, "osm_id": 1029806558, "osm_type": "nodes" }, "geometry": { "type": "Point", "coordinates": [ 98.5863855, 8.0816009 ] } },
{ "type": "Feature", "properties": { "name": "ท่าเรือคลองสาน", "name:en": "Khlong San Pier", "amenity": "ferry_terminal", "building": null, "port": null, "operator:type": null, "addr:full": null, "addr:city": null, "source": null, "name:th": "ท่าเรือคลองสาน", "osm_id": 3946372582, "osm_type": "nodes" }, "geometry": { "type": "Point", "coordinates": [ 100.5116047, 13.7291082 ] } },
{ "type": "Feature", "properties": { "name": "ท่าเรือไอคอนสยาม 2", "name:en": "Icon Siam Pier 2", "amenity": "ferry_terminal", "building": null, "port": null, "operator:type": null, "addr:full": null, "addr:city": null, "source": null, "name:th": "ท่าเรือไอคอนสยาม 2", "osm_id": 6150815344, "osm_type": "nodes" }, "geometry": { "type": "Point", "coordinates": [ 100.5118539, 13.7266265 ] } },
{ "type": "Feature", "properties": { "name": "ท่าเรือไอคอนสยาม 4", "name:en": "Icon Siam Pier 4", "amenity": "ferry_terminal", "building": null, "port": null, "operator:type": null, "addr:full": null, "addr:city": null, "source": null, "name:th": "ท่าเรือไอคอนสยาม 4", "osm_id": 6150815346, "osm_type": "nodes" }, "geometry": { "type": "Point", "coordinates": [ 100.5117949, 13.7275593 ] } },
{ "type": "Feature", "properties": { "name": "ท่าตลิ่งชัน", "name:en": null, "amenity": "ferry_terminal", "building": null, "port": null, "operator:type": null, "addr:full": null, "addr:city": null, "source": null, "name:th": null, "osm_id": 2043749492, "osm_type": "nodes" }, "geometry": { "type": "Point", "coordinates": [ 100.7903611, 12.9311753 ] } },
{ "type": "Feature", "properties": { "name": "ท่าเทียบเรือเทศบาลตำบลปากน้ำ", "name:en": "Pak Nam Subdistrict Municipality Pier", "amenity": "ferry_terminal", "building": null, "port": null, "operator:type": null, "addr:full": null, "addr:city": null, "source": null, "name:th": "ท่าเทียบเรือเทศบาลตำบลปากน้ำ", "osm_id": 4770792555, "osm_type": "nodes" }, "geometry": { "type": "Point", "coordinates": [ 98.5988977, 9.9473956 ] } },
{ "type": "Feature", "properties": { "name": "ท่าเรือกสท. โทรคมนาคม", "name:en": null, "amenity": "ferry_terminal", "building": null, "port": null, "operator:type": null, "addr:full": null, "addr:city": null, "source": null, "name:th": "ท่าเรือกสท. โทรคมนาคม", "osm_id": 3505137003, "osm_type": "nodes" }, "geometry": { "type": "Point", "coordinates": [ 100.5134675, 13.7269639 ] } },
{ "type": "Feature", "properties": { "name": "เกาะขามใหญ่", "name:en": "Ko Kham Yai", "amenity": "ferry_terminal", "building": null, "port": null, "operator:type": null, "addr:full": null, "addr:city": null, "source": null, "name:th": "เกาะขามใหญ่", "osm_id": 4011040817, "osm_type": "nodes" }, "geometry": { "type": "Point", "coordinates": [ 100.8207153, 13.1651654 ] } },
{ "type": "Feature", "properties": { "name": null, "name:en": "Slow boat from Chiang Saen to Luang Prabang", "amenity": "ferry_terminal", "building": null, "port": null, "operator:type": null, "addr:full": null, "addr:city": null, "source": null, "name:th": null, "osm_id": 10978020630, "osm_type": "nodes" }, "geometry": { "type": "Point", "coordinates": [ 100.4066375, 20.2850839 ] } },
{ "type": "Feature", "properties": { "name": null, "name:en": null, "amenity": "ferry_terminal", "building": null, "port": null, "operator:type": null, "addr:full": null, "addr:city": null, "source": null, "name:th": null, "osm_id": 7099440185, "osm_type": "nodes" }, "geometry": { "type": "Point", "coordinates": [ 100.4344507, 20.2464273 ] } },
{ "type": "Feature", "properties": { "name": null, "name:en": null, "amenity": "ferry_terminal", "building": null, "port": null, "operator:type": null, "addr:full": null, "addr:city": null, "source": null, "name:th": null, "osm_id": 5012492933, "osm_type": "nodes" }, "geometry": { "type": "Point", "coordinates": [ 99.2470511, 10.4409227 ] } },
{ "type": "Feature", "properties": { "name": "เทเวศร์", "name:en": "Thewet", "amenity": "ferry_terminal", "building": null, "port": null, "operator:type": null, "addr:full": null, "addr:city": null, "source": null, "name:th": "เทเวศร์", "osm_id": 3542061069, "osm_type": "nodes" }, "geometry": { "type": "Point", "coordinates": [ 100.5000982, 13.7720432 ] } },
{ "type": "Feature", "properties": { "name": "เกียกกาย", "name:en": "Kiak Kai", "amenity": "ferry_terminal", "building": null, "port": null, "operator:type": null, "addr:full": null, "addr:city": null, "source": null, "name:th": "เกียกกาย", "osm_id": 1408337589, "osm_type": "nodes" }, "geometry": { "type": "Point", "coordinates": [ 100.5171044, 13.7988074 ] } },
{ "type": "Feature", "properties": { "name": "สะพานพุทธ", "name:en": "Memorial Bridge", "amenity": "ferry_terminal", "building": null, "port": null, "operator:type": null, "addr:full": null, "addr:city": null, "source": null, "name:th": "สะพานพุทธ", "osm_id": 2367398625, "osm_type": "nodes" }, "geometry": { "type": "Point", "coordinates": [ 100.4982194, 13.7397402 ] } },
{ "type": "Feature", "properties": { "name": "Seatran Nathon Pier", "name:en": null, "amenity": "ferry_terminal", "building": null, "port": null, "operator:type": null, "addr:full": null, "addr:city": null, "source": "Bing", "name:th": null, "osm_id": 2467345103, "osm_type": "nodes" }, "geometry": { "type": "Point", "coordinates": [ 99.9304832, 9.5380957 ] } },
{ "type": "Feature", "properties": { "name": "บางโพ", "name:en": "Bang Po", "amenity": "ferry_terminal", "building": null, "port": null, "operator:type": null, "addr:full": null, "addr:city": null, "source": null, "name:th": "บางโพ", "osm_id": 1408394726, "osm_type": "nodes" }, "geometry": { "type": "Point", "coordinates": [ 100.5187853, 13.8063588 ] } },
{ "type": "Feature", "properties": { "name": "เกาะสีชัง", "name:en": "Ko Sichang", "amenity": "ferry_terminal", "building": null, "port": null, "operator:type": null, "addr:full": null, "addr:city": null, "source": null, "name:th": "เกาะสีชัง", "osm_id": 487193238, "osm_type": "nodes" }, "geometry": { "type": "Point", "coordinates": [ 100.8093025, 13.1661108 ] } },
{ "type": "Feature", "properties": { "name": "พระอาทิตย์", "name:en": "Phra Arthit", "amenity": "ferry_terminal", "building": null, "port": null, "operator:type": null, "addr:full": null, "addr:city": null, "source": null, "name:th": "พระอาทิตย์", "osm_id": 1905838342, "osm_type": "nodes" }, "geometry": { "type": "Point", "coordinates": [ 100.4940371, 13.7635578 ] } },
{ "type": "Feature", "properties": { "name": "KohYaoYai", "name:en": null, "amenity": "ferry_terminal", "building": null, "port": null, "operator:type": null, "addr:full": null, "addr:city": null, "source": null, "name:th": null, "osm_id": 485618090, "osm_type": "nodes" }, "geometry": { "type": "Point", "coordinates": [ 98.5645681, 8.0861658 ] } },
{ "type": "Feature", "properties": { "name": null, "name:en": "Songserm Thong Sala Pier Ferry", "amenity": "ferry_terminal", "building": null, "port": null, "operator:type": null, "addr:full": null, "addr:city": null, "source": null, "name:th": null, "osm_id": 1167801500, "osm_type": "nodes" }, "geometry": { "type": "Point", "coordinates": [ 99.9824609, 9.7109262 ] } },
{ "type": "Feature", "properties": { "name": null, "name:en": "Lomprayah Thong Sala Pier", "amenity": "ferry_terminal", "building": null, "port": null, "operator:type": null, "addr:full": null, "addr:city": null, "source": null, "name:th": null, "osm_id": 3267509123, "osm_type": "nodes" }, "geometry": { "type": "Point", "coordinates": [ 99.9834917, 9.7084821 ] } },
{ "type": "Feature", "properties": { "name": "Ko Pha Ngan", "name:en": "Raja Ferry Thong Sala Pier", "amenity": "ferry_terminal", "building": null, "port": null, "operator:type": null, "addr:full": null, "addr:city": null, "source": null, "name:th": "Ko Pha Ngan", "osm_id": 3654955947, "osm_type": "nodes" }, "geometry": { "type": "Point", "coordinates": [ 99.9838649, 9.7081572 ] } },
{ "type": "Feature", "properties": { "name": null, "name:en": "Night Boat Thong Sala Pier", "amenity": "ferry_terminal", "building": null, "port": null, "operator:type": null, "addr:full": null, "addr:city": null, "source": null, "name:th": null, "osm_id": 2248035274, "osm_type": "nodes" }, "geometry": { "type": "Point", "coordinates": [ 99.9835228, 9.7089328 ] } },
{ "type": "Feature", "properties": { "name": null, "name:en": "Seatran Thong Sala Pier", "amenity": "ferry_terminal", "building": null, "port": null, "operator:type": null, "addr:full": null, "addr:city": null, "source": null, "name:th": null, "osm_id": 2248035279, "osm_type": "nodes" }, "geometry": { "type": "Point", "coordinates": [ 99.9834537, 9.7086037 ] } },
{ "type": "Feature", "properties": { "name": "Songserm", "name:en": null, "amenity": "ferry_terminal", "building": null, "port": null, "operator:type": null, "addr:full": null, "addr:city": null, "source": null, "name:th": null, "osm_id": 7203362799, "osm_type": "nodes" }, "geometry": { "type": "Point", "coordinates": [ 99.6781135, 9.3396171 ] } },
{ "type": "Feature", "properties": { "name": "Lomprayah", "name:en": "Lomprayah", "amenity": "ferry_terminal", "building": null, "port": null, "operator:type": null, "addr:full": null, "addr:city": null, "source": null, "name:th": null, "osm_id": 4704126719, "osm_type": "nodes" }, "geometry": { "type": "Point", "coordinates": [ 99.6780473, 9.3400876 ] } },
{ "type": "Feature", "properties": { "name": "ท่าเรือพระปิ่นเกล้า (ฝั่งธนบุรี) 12", "name:en": "Phra Pin Klao Pier (Thon Buri) 12", "amenity": "ferry_terminal", "building": null, "port": null, "operator:type": null, "addr:full": null, "addr:city": null, "source": null, "name:th": null, "osm_id": 1632812009, "osm_type": "nodes" }, "geometry": { "type": "Point", "coordinates": [ 100.4899834, 13.7624275 ] } },
{ "type": "Feature", "properties": { "name": "ท่าพระจันทร์", "name:en": "Tha Phra Chan 11", "amenity": "ferry_terminal", "building": null, "port": null, "operator:type": null, "addr:full": null, "addr:city": null, "source": null, "name:th": "ท่าพระจันทร์", "osm_id": 3309041510, "osm_type": "nodes" }, "geometry": { "type": "Point", "coordinates": [ 100.4887151, 13.7566499 ] } },
{ "type": "Feature", "properties": { "name": "Coral harbor pier", "name:en": null, "amenity": "ferry_terminal", "building": null, "port": null, "operator:type": null, "addr:full": null, "addr:city": null, "source": null, "name:th": null, "osm_id": 11738601686, "osm_type": "nodes" }, "geometry": { "type": "Point", "coordinates": [ 99.945805, 9.4193493 ] } },
{ "type": "Feature", "properties": { "name": "ท่าเตียน", "name:en": "Tha Tien", "amenity": "ferry_terminal", "building": null, "port": null, "operator:type": null, "addr:full": null, "addr:city": null, "source": null, "name:th": "ท่าเตียน", "osm_id": 11743570949, "osm_type": "nodes" }, "geometry": { "type": "Point", "coordinates": [ 100.4903196, 13.7455462 ] } },
{ "type": "Feature", "properties": { "name": "ท่าเตียน", "name:en": "Tha Tien", "amenity": "ferry_terminal", "building": null, "port": null, "operator:type": null, "addr:full": null, "addr:city": null, "source": null, "name:th": "ท่าเตียน", "osm_id": 11743570951, "osm_type": "nodes" }, "geometry": { "type": "Point", "coordinates": [ 100.4904047, 13.7454115 ] } },
{ "type": "Feature", "properties": { "name": "ท่าเริอสุขาภิบาล", "name:en": null, "amenity": "ferry_terminal", "building": null, "port": null, "operator:type": null, "addr:full": null, "addr:city": null, "source": null, "name:th": null, "osm_id": 11770982523, "osm_type": "nodes" }, "geometry": { "type": "Point", "coordinates": [ 100.2746766, 13.5346618 ] } },
{ "type": "Feature", "properties": { "name": null, "name:en": null, "amenity": "ferry_terminal", "building": null, "port": null, "operator:type": null, "addr:full": null, "addr:city": null, "source": null, "name:th": null, "osm_id": 2519209063, "osm_type": "nodes" }, "geometry": { "type": "Point", "coordinates": [ 103.495577, 16.7629654 ] } },
{ "type": "Feature", "properties": { "name": "สะพานหัวช้าง", "name:en": "Sapan Hua Chang", "amenity": "ferry_terminal", "building": null, "port": null, "operator:type": null, "addr:full": null, "addr:city": null, "source": null, "name:th": "สะพานหัวช้าง", "osm_id": 4586843050, "osm_type": "nodes" }, "geometry": { "type": "Point", "coordinates": [ 100.5308829, 13.7491969 ] } },
{ "type": "Feature", "properties": { "name": null, "name:en": null, "amenity": "ferry_terminal", "building": null, "port": null, "operator:type": null, "addr:full": null, "addr:city": null, "source": null, "name:th": null, "osm_id": 776288832, "osm_type": "nodes" }, "geometry": { "type": "Point", "coordinates": [ 102.5558339, 12.207965 ] } },
{ "type": "Feature", "properties": { "name": "ท่าดินแดง", "name:en": "Tha Din Daeng", "amenity": "ferry_terminal", "building": null, "port": null, "operator:type": null, "addr:full": null, "addr:city": null, "source": null, "name:th": "ท่าดินแดง", "osm_id": 974438572, "osm_type": "nodes" }, "geometry": { "type": "Point", "coordinates": [ 100.5038479, 13.736982 ] } },
{ "type": "Feature", "properties": { "name": "ผ่านฟ้าลีลาศ", "name:en": "Phanfa Leelard", "amenity": "ferry_terminal", "building": null, "port": null, "operator:type": null, "addr:full": null, "addr:city": null, "source": null, "name:th": "ผ่านฟ้าลีลาศ", "osm_id": 567014290, "osm_type": "nodes" }, "geometry": { "type": "Point", "coordinates": [ 100.506445, 13.7555116 ] } },
{ "type": "Feature", "properties": { "name": "Ratchaprabha Marina", "name:en": null, "amenity": "ferry_terminal", "building": null, "port": null, "operator:type": null, "addr:full": null, "addr:city": null, "source": null, "name:th": null, "osm_id": 5563433023, "osm_type": "nodes" }, "geometry": { "type": "Point", "coordinates": [ 98.8204677, 8.9776143 ] } },
{ "type": "Feature", "properties": { "name": null, "name:en": null, "amenity": "ferry_terminal", "building": null, "port": null, "operator:type": null, "addr:full": null, "addr:city": null, "source": null, "name:th": null, "osm_id": 11594807159, "osm_type": "nodes" }, "geometry": { "type": "Point", "coordinates": [ 98.7457895, 8.3372648 ] } },
{ "type": "Feature", "properties": { "name": "เรือข้ามฟาก 1", "name:en": null, "amenity": "ferry_terminal", "building": null, "port": null, "operator:type": null, "addr:full": null, "addr:city": null, "source": null, "name:th": null, "osm_id": 11582425627, "osm_type": "nodes" }, "geometry": { "type": "Point", "coordinates": [ 100.4651365, 14.6636624 ] } },
{ "type": "Feature", "properties": { "name": "เรือข้ามฟาก 2", "name:en": null, "amenity": "ferry_terminal", "building": null, "port": null, "operator:type": null, "addr:full": null, "addr:city": null, "source": null, "name:th": null, "osm_id": 11582425628, "osm_type": "nodes" }, "geometry": { "type": "Point", "coordinates": [ 100.4640381, 14.6627816 ] } },
{ "type": "Feature", "properties": { "name": "ท่าเรือลพชัย ตลาดเก่าริมน้ำปากเกร็ด", "name:en": null, "amenity": "ferry_terminal", "building": null, "port": null, "operator:type": null, "addr:full": null, "addr:city": null, "source": null, "name:th": null, "osm_id": 11466860298, "osm_type": "nodes" }, "geometry": { "type": "Point", "coordinates": [ 100.4954005, 13.915644 ] } },
{ "type": "Feature", "properties": { "name": "ท่าเรือข้ามฟากวัดกลางเกร็ด", "name:en": "Wat Klang Kret Ferry", "amenity": "ferry_terminal", "building": null, "port": null, "operator:type": null, "addr:full": null, "addr:city": null, "source": null, "name:th": null, "osm_id": 2757817163, "osm_type": "nodes" }, "geometry": { "type": "Point", "coordinates": [ 100.4915896, 13.9046597 ] } },
{ "type": "Feature", "properties": { "name": "ท่าเรือป่าฝ้าย", "name:en": "Pa Fai", "amenity": "ferry_terminal", "building": null, "port": null, "operator:type": null, "addr:full": null, "addr:city": null, "source": null, "name:th": null, "osm_id": 2757817164, "osm_type": "nodes" }, "geometry": { "type": "Point", "coordinates": [ 100.4903118, 13.9046617 ] } },
{ "type": "Feature", "properties": { "name": null, "name:en": null, "amenity": "ferry_terminal", "building": null, "port": null, "operator:type": null, "addr:full": null, "addr:city": null, "source": null, "name:th": null, "osm_id": 2281356420, "osm_type": "nodes" }, "geometry": { "type": "Point", "coordinates": [ 98.6353581, 8.176038 ] } },
{ "type": "Feature", "properties": { "name": "ท่าไข่", "name:en": "Tha Kai Pier", "amenity": "ferry_terminal", "building": null, "port": null, "operator:type": null, "addr:full": null, "addr:city": null, "source": null, "name:th": "ท่าไข่", "osm_id": 2417282458, "osm_type": "nodes" }, "geometry": { "type": "Point", "coordinates": [ 98.5866896, 8.120209 ] } },
{ "type": "Feature", "properties": { "name": "ท่าเรือนวลทิพย์", "name:en": "Nuanthip Pier", "amenity": "ferry_terminal", "building": null, "port": null, "operator:type": null, "addr:full": null, "addr:city": null, "source": null, "name:th": "ท่าเรือนวลทิพย์", "osm_id": 303340779, "osm_type": "nodes" }, "geometry": { "type": "Point", "coordinates": [ 101.4424062, 12.626604 ] } },
{ "type": "Feature", "properties": { "name": null, "name:en": "Nadan Pier", "amenity": "ferry_terminal", "building": null, "port": null, "operator:type": null, "addr:full": null, "addr:city": null, "source": null, "name:th": null, "osm_id": 2478263464, "osm_type": "nodes" }, "geometry": { "type": "Point", "coordinates": [ 101.4634933, 12.5749424 ] } },
{ "type": "Feature", "properties": { "name": "ท่าวัดสนามเหนือ", "name:en": "Wat Sanam Nuea Ferry Pier", "amenity": "ferry_terminal", "building": null, "port": null, "operator:type": null, "addr:full": null, "addr:city": null, "source": null, "name:th": "ท่าวัดสนามเหนือ", "osm_id": 1388321881, "osm_type": "nodes" }, "geometry": { "type": "Point", "coordinates": [ 100.4916797, 13.9128265 ] } },
{ "type": "Feature", "properties": { "name": null, "name:en": null, "amenity": "ferry_terminal", "building": null, "port": null, "operator:type": null, "addr:full": null, "addr:city": null, "source": null, "name:th": null, "osm_id": 11466860301, "osm_type": "nodes" }, "geometry": { "type": "Point", "coordinates": [ 100.4949538, 13.9176042 ] } },
{ "type": "Feature", "properties": { "name": "Lomprayah Koh Tao Pier", "name:en": null, "amenity": "ferry_terminal", "building": null, "port": null, "operator:type": null, "addr:full": null, "addr:city": null, "source": null, "name:th": "Ko Rap Lomprayah Pier", "osm_id": 1207365518, "osm_type": "nodes" }, "geometry": { "type": "Point", "coordinates": [ 99.8236459, 10.0842147 ] } },
{ "type": "Feature", "properties": { "name": null, "name:en": "Songserm Koh Tao Pier", "amenity": "ferry_terminal", "building": null, "port": null, "operator:type": null, "addr:full": null, "addr:city": null, "source": null, "name:th": null, "osm_id": 2223022735, "osm_type": "nodes" }, "geometry": { "type": "Point", "coordinates": [ 99.8227955, 10.0834776 ] } },
{ "type": "Feature", "properties": { "name": null, "name:en": "Nightboat Koh Tao Pier", "amenity": "ferry_terminal", "building": null, "port": null, "operator:type": null, "addr:full": null, "addr:city": null, "source": null, "name:th": null, "osm_id": 2325353188, "osm_type": "nodes" }, "geometry": { "type": "Point", "coordinates": [ 99.8237248, 10.0844952 ] } },
{ "type": "Feature", "properties": { "name": null, "name:en": "Seatran Koh Tao Pier", "amenity": "ferry_terminal", "building": null, "port": null, "operator:type": null, "addr:full": null, "addr:city": null, "source": null, "name:th": null, "osm_id": 2467265316, "osm_type": "nodes" }, "geometry": { "type": "Point", "coordinates": [ 99.8238958, 10.0850489 ] } },
{ "type": "Feature", "properties": { "name": null, "name:en": null, "amenity": "ferry_terminal", "building": null, "port": null, "operator:type": null, "addr:full": null, "addr:city": null, "source": null, "name:th": null, "osm_id": 1611313308, "osm_type": "nodes" }, "geometry": { "type": "Point", "coordinates": [ 98.8148504, 8.0397023 ] } },
{ "type": "Feature", "properties": { "name": "วัดม่วงแค", "name:en": "Wat Muang Kae", "amenity": "ferry_terminal", "building": null, "port": null, "operator:type": null, "addr:full": null, "addr:city": null, "source": null, "name:th": "วัดม่วงแค", "osm_id": 2397987932, "osm_type": "nodes" }, "geometry": { "type": "Point", "coordinates": [ 100.5134803, 13.7263089 ] } },
{ "type": "Feature", "properties": { "name": null, "name:en": null, "amenity": "ferry_terminal", "building": null, "port": null, "operator:type": null, "addr:full": null, "addr:city": null, "source": null, "name:th": null, "osm_id": 8127509144, "osm_type": "nodes" }, "geometry": { "type": "Point", "coordinates": [ 98.5095361, 16.8372199 ] } },
{ "type": "Feature", "properties": { "name": null, "name:en": null, "amenity": "ferry_terminal", "building": null, "port": null, "operator:type": null, "addr:full": null, "addr:city": null, "source": null, "name:th": null, "osm_id": 11378820322, "osm_type": "nodes" }, "geometry": { "type": "Point", "coordinates": [ 98.8168109, 8.0380329 ] } },
{ "type": "Feature", "properties": { "name": null, "name:en": null, "amenity": "ferry_terminal", "building": null, "port": null, "operator:type": null, "addr:full": null, "addr:city": null, "source": null, "name:th": null, "osm_id": 2145000181, "osm_type": "nodes" }, "geometry": { "type": "Point", "coordinates": [ 102.7429403, 17.8843095 ] } },
{ "type": "Feature", "properties": { "name": null, "name:en": null, "amenity": "ferry_terminal", "building": null, "port": null, "operator:type": null, "addr:full": null, "addr:city": null, "source": null, "name:th": null, "osm_id": 901991503, "osm_type": "nodes" }, "geometry": { "type": "Point", "coordinates": [ 101.8572628, 18.0453981 ] } },
{ "type": "Feature", "properties": { "name": null, "name:en": null, "amenity": "ferry_terminal", "building": null, "port": null, "operator:type": null, "addr:full": null, "addr:city": null, "source": null, "name:th": null, "osm_id": 5657054384, "osm_type": "nodes" }, "geometry": { "type": "Point", "coordinates": [ 101.8578677, 18.041119 ] } },
{ "type": "Feature", "properties": { "name": "Siam Charoen Nakhon Pier", "name:en": null, "amenity": "ferry_terminal", "building": null, "port": null, "operator:type": null, "addr:full": null, "addr:city": null, "source": null, "name:th": null, "osm_id": 12442803776, "osm_type": "nodes" }, "geometry": { "type": "Point", "coordinates": [ 100.4916726, 13.7028317 ] } },
{ "type": "Feature", "properties": { "name": "ท่าเรือสถานีรถไฟหัวลำโพง", "name:en": "Hua Lamphong Station Pier", "amenity": "ferry_terminal", "building": null, "port": null, "operator:type": null, "addr:full": null, "addr:city": null, "source": null, "name:th": "ท่าเรือสถานีรถไฟหัวลำโพง", "osm_id": 8130282595, "osm_type": "nodes" }, "geometry": { "type": "Point", "coordinates": [ 100.515741, 13.7386935 ] } },
{ "type": "Feature", "properties": { "name": "หัวลำโพง", "name:en": null, "amenity": "ferry_terminal", "building": null, "port": null, "operator:type": null, "addr:full": null, "addr:city": null, "source": null, "name:th": null, "osm_id": 4327591716, "osm_type": "nodes" }, "geometry": { "type": "Point", "coordinates": [ 100.5157635, 13.7409063 ] } },
{ "type": "Feature", "properties": { "name": "ท่าเรือนพวงศ์", "name:en": "Nopphawong Pier", "amenity": "ferry_terminal", "building": null, "port": null, "operator:type": null, "addr:full": null, "addr:city": null, "source": null, "name:th": "ท่าเรือนพวงศ์", "osm_id": 8130282598, "osm_type": "nodes" }, "geometry": { "type": "Point", "coordinates": [ 100.5163042, 13.7449517 ] } },
{ "type": "Feature", "properties": { "name": "ท่าเรือยศเส", "name:en": "Yotse Pier", "amenity": "ferry_terminal", "building": null, "port": null, "operator:type": null, "addr:full": null, "addr:city": null, "source": null, "name:th": "ท่าเรือยศเส", "osm_id": 8130282601, "osm_type": "nodes" }, "geometry": { "type": "Point", "coordinates": [ 100.5164749, 13.7468323 ] } },
{ "type": "Feature", "properties": { "name": "ท่าเรือกระทรวงพลังงาน", "name:en": "Department of Energy Pier", "amenity": "ferry_terminal", "building": null, "port": null, "operator:type": null, "addr:full": null, "addr:city": null, "source": null, "name:th": "ท่าเรือกระทรวงพลังงาน", "osm_id": 8130282604, "osm_type": "nodes" }, "geometry": { "type": "Point", "coordinates": [ 100.5170059, 13.7492906 ] } },
{ "type": "Feature", "properties": { "name": "ท่าเรือนครสวรรค์", "name:en": "Nakhon Sawan Pier", "amenity": "ferry_terminal", "building": null, "port": null, "operator:type": null, "addr:full": null, "addr:city": null, "source": null, "name:th": "ท่าเรือนครสวรรค์", "osm_id": 8130282610, "osm_type": "nodes" }, "geometry": { "type": "Point", "coordinates": [ 100.5132132, 13.7597686 ] } },
{ "type": "Feature", "properties": { "name": "ท่าเรือราชดำเนินนอก", "name:en": "Ratchadamnoen Nok Pier", "amenity": "ferry_terminal", "building": null, "port": null, "operator:type": null, "addr:full": null, "addr:city": null, "source": null, "name:th": "ท่าเรือราชดำเนินนอก", "osm_id": 8130282613, "osm_type": "nodes" }, "geometry": { "type": "Point", "coordinates": [ 100.5100915, 13.7628618 ] } },
{ "type": "Feature", "properties": { "name": "ท่าเรือประชาธิปไตย", "name:en": "Praca Thippatai Pier", "amenity": "ferry_terminal", "building": null, "port": null, "operator:type": null, "addr:full": null, "addr:city": null, "source": null, "name:th": "ท่าเรือประชาธิปไตย", "osm_id": 8130282615, "osm_type": "nodes" }, "geometry": { "type": "Point", "coordinates": [ 100.50796, 13.7650838 ] } },
{ "type": "Feature", "properties": { "name": "ท่าเรือตลาดเทวราช", "name:en": "Thevaraj Market Pier", "amenity": "ferry_terminal", "building": null, "port": null, "operator:type": null, "addr:full": null, "addr:city": null, "source": null, "name:th": "ท่าเรือตลาดเทวราช", "osm_id": 8130294620, "osm_type": "nodes" }, "geometry": { "type": "Point", "coordinates": [ 100.5020131, 13.7711639 ] } },
{ "type": "Feature", "properties": { "name": "ท่าเรือเทเวศร์", "name:en": "Thewet Pier", "amenity": "ferry_terminal", "building": null, "port": null, "operator:type": null, "addr:full": null, "addr:city": null, "source": null, "name:th": "ท่าเรือเทเวศร์", "osm_id": 8130294690, "osm_type": "nodes" }, "geometry": { "type": "Point", "coordinates": [ 100.5048108, 13.7685662 ] } },
{ "type": "Feature", "properties": { "name": "ท่าเทียบเรือตลาดเจ้าพรหม", "name:en": "Chao Phrom Market Pier", "amenity": "ferry_terminal", "building": null, "port": null, "operator:type": null, "addr:full": null, "addr:city": null, "source": null, "name:th": null, "osm_id": 2068589172, "osm_type": "nodes" }, "geometry": { "type": "Point", "coordinates": [ 100.5806056, 14.3580231 ] } },
{ "type": "Feature", "properties": { "name": "ท่าเทียบเรือสถานีรถไฟอยุธยา", "name:en": "Ayutthaya Train Station Pier", "amenity": "ferry_terminal", "building": null, "port": null, "operator:type": null, "addr:full": null, "addr:city": null, "source": null, "name:th": null, "osm_id": 6164878967, "osm_type": "nodes" }, "geometry": { "type": "Point", "coordinates": [ 100.5813489, 14.3566701 ] } },
{ "type": "Feature", "properties": { "name": "ท่าเรือวัดคูหาสวรรค์", "name:en": null, "amenity": "ferry_terminal", "building": null, "port": null, "operator:type": null, "addr:full": null, "addr:city": null, "source": null, "name:th": null, "osm_id": 12432276105, "osm_type": "nodes" }, "geometry": { "type": "Point", "coordinates": [ 100.4626175, 13.7327251 ] } },
{ "type": "Feature", "properties": { "name": null, "name:en": null, "amenity": "ferry_terminal", "building": null, "port": null, "operator:type": null, "addr:full": null, "addr:city": null, "source": null, "name:th": null, "osm_id": 446046066, "osm_type": "nodes" }, "geometry": { "type": "Point", "coordinates": [ 98.273757, 8.8656814 ] } },
{ "type": "Feature", "properties": { "name": "ท่าวังหลัง", "name:en": "Tha Wang Lang", "amenity": "ferry_terminal", "building": null, "port": null, "operator:type": null, "addr:full": null, "addr:city": null, "source": null, "name:th": "ท่าวังหลัง", "osm_id": 1408469372, "osm_type": "nodes" }, "geometry": { "type": "Point", "coordinates": [ 100.4868281, 13.7556928 ] } },
{ "type": "Feature", "properties": { "name": "ท่าวังหลัง", "name:en": "Tha Wang Lang N 10", "amenity": "ferry_terminal", "building": null, "port": null, "operator:type": null, "addr:full": null, "addr:city": null, "source": null, "name:th": "ท่าวังหลัง", "osm_id": 3309041483, "osm_type": "nodes" }, "geometry": { "type": "Point", "coordinates": [ 100.486861, 13.7559054 ] } },
{ "type": "Feature", "properties": { "name": "Lomprayah Pralarn Pier", "name:en": "Lomprayah Pralarn Pier", "amenity": "ferry_terminal", "building": null, "port": null, "operator:type": null, "addr:full": null, "addr:city": null, "source": "Bing", "name:th": null, "osm_id": 1587252583, "osm_type": "nodes" }, "geometry": { "type": "Point", "coordinates": [ 99.9851674, 9.5844377 ] } },
{ "type": "Feature", "properties": { "name": "Bangrak Pier", "name:en": "Bangrak Pier", "amenity": "ferry_terminal", "building": null, "port": null, "operator:type": null, "addr:full": null, "addr:city": null, "source": null, "name:th": null, "osm_id": 4775949726, "osm_type": "nodes" }, "geometry": { "type": "Point", "coordinates": [ 100.0604849, 9.5652005 ] } },
{ "type": "Feature", "properties": { "name": null, "name:en": "Domestic boats", "amenity": "ferry_terminal", "building": null, "port": null, "operator:type": null, "addr:full": null, "addr:city": null, "source": null, "name:th": null, "osm_id": 11716167777, "osm_type": "nodes" }, "geometry": { "type": "Point", "coordinates": [ 99.3042862, 6.4862591 ] } },
{ "type": "Feature", "properties": { "name": "ท่าเทียบเรือสุราษฎร์ธานี", "name:en": null, "amenity": "ferry_terminal", "building": null, "port": null, "operator:type": null, "addr:full": null, "addr:city": null, "source": null, "name:th": null, "osm_id": 2502419676, "osm_type": "nodes" }, "geometry": { "type": "Point", "coordinates": [ 99.3227906, 9.1434466 ] } },
{ "type": "Feature", "properties": { "name": "เกาะเจริณู", "name:en": "ko Jaroen Night ferry Suratthani-Koh Tao", "amenity": "ferry_terminal", "building": null, "port": null, "operator:type": null, "addr:full": null, "addr:city": null, "source": null, "name:th": null, "osm_id": 5884923535, "osm_type": "nodes" }, "geometry": { "type": "Point", "coordinates": [ 99.3214542, 9.1435647 ] } },
{ "type": "Feature", "properties": { "name": "Tha Dan Pier", "name:en": null, "amenity": "ferry_terminal", "building": null, "port": null, "operator:type": null, "addr:full": null, "addr:city": null, "source": null, "name:th": null, "osm_id": 5503285952, "osm_type": "nodes" }, "geometry": { "type": "Point", "coordinates": [ 98.5132352, 8.4009896 ] } },
{ "type": "Feature", "properties": { "name": "วัดเศวตฉัตร", "name:en": "Wat Sawetachat", "amenity": "ferry_terminal", "building": null, "port": null, "operator:type": null, "addr:full": null, "addr:city": null, "source": null, "name:th": "วัดเศวตฉัตร", "osm_id": 7791237198, "osm_type": "nodes" }, "geometry": { "type": "Point", "coordinates": [ 100.5071847, 13.7126629 ] } },
{ "type": "Feature", "properties": { "name": "ืท่าเรือเชียงแสน", "name:en": "Chiang Saen port", "amenity": "ferry_terminal", "building": null, "port": null, "operator:type": null, "addr:full": null, "addr:city": null, "source": null, "name:th": null, "osm_id": 2312927226, "osm_type": "nodes" }, "geometry": { "type": "Point", "coordinates": [ 100.0887042, 20.2749481 ] } },
{ "type": "Feature", "properties": { "name": "อ่าวไร่เลย์", "name:en": "Railay East", "amenity": "ferry_terminal", "building": null, "port": null, "operator:type": null, "addr:full": null, "addr:city": null, "source": null, "name:th": "อ่าวไร่เลย์", "osm_id": 265688020, "osm_type": "nodes" }, "geometry": { "type": "Point", "coordinates": [ 98.8435221, 8.0093633 ] } },
{ "type": "Feature", "properties": { "name": "ปากบารา", "name:en": "Pak Bara", "amenity": "ferry_terminal", "building": null, "port": null, "operator:type": null, "addr:full": null, "addr:city": null, "source": null, "name:th": "ปากบารา", "osm_id": 5438618556, "osm_type": "nodes" }, "geometry": { "type": "Point", "coordinates": [ 99.7212404, 6.8604413 ] } },
{ "type": "Feature", "properties": { "name": "ท่าช้าง", "name:en": "Tha Chang", "amenity": "ferry_terminal", "building": null, "port": null, "operator:type": null, "addr:full": null, "addr:city": null, "source": null, "name:th": "ท่าช้าง", "osm_id": 3309041474, "osm_type": "nodes" }, "geometry": { "type": "Point", "coordinates": [ 100.4883207, 13.7532018 ] } },
{ "type": "Feature", "properties": { "name": "ท่าช้าง", "name:en": "Tha Chang", "amenity": "ferry_terminal", "building": null, "port": null, "operator:type": null, "addr:full": null, "addr:city": null, "source": null, "name:th": "ท่าช้าง", "osm_id": 9622825431, "osm_type": "nodes" }, "geometry": { "type": "Point", "coordinates": [ 100.488274, 13.7527005 ] } },
{ "type": "Feature", "properties": { "name": "ท่าช้าง", "name:en": "Tha Chang", "amenity": "ferry_terminal", "building": null, "port": null, "operator:type": null, "addr:full": null, "addr:city": null, "source": null, "name:th": "ท่าช้าง", "osm_id": 3309041468, "osm_type": "nodes" }, "geometry": { "type": "Point", "coordinates": [ 100.4883181, 13.7531549 ] } },
{ "type": "Feature", "properties": { "name": "ท่าเตียน", "name:en": "Tha Tien N8", "amenity": "ferry_terminal", "building": null, "port": null, "operator:type": null, "addr:full": null, "addr:city": null, "source": null, "name:th": "ท่าเตียน", "osm_id": 249403520, "osm_type": "nodes" }, "geometry": { "type": "Point", "coordinates": [ 100.4900083, 13.7459776 ] } },
{ "type": "Feature", "properties": { "name": "ท่าเตียน", "name:en": "Tha Tien N8", "amenity": "ferry_terminal", "building": null, "port": null, "operator:type": null, "addr:full": null, "addr:city": null, "source": null, "name:th": "ท่าเตียน", "osm_id": 11743570947, "osm_type": "nodes" }, "geometry": { "type": "Point", "coordinates": [ 100.4900957, 13.7458358 ] } },
{ "type": "Feature", "properties": { "name": "คลองระหัส", "name:en": "Khlong Rahat", "amenity": "ferry_terminal", "building": null, "port": null, "operator:type": null, "addr:full": null, "addr:city": null, "source": null, "name:th": "คลองระหัส", "osm_id": 9758722604, "osm_type": "nodes" }, "geometry": { "type": "Point", "coordinates": [ 100.6786888, 13.7830846 ] } },
{ "type": "Feature", "properties": { "name": "ราชวงศ์", "name:en": "Rachawong", "amenity": "ferry_terminal", "building": null, "port": null, "operator:type": null, "addr:full": null, "addr:city": null, "source": null, "name:th": "ราชวงศ์", "osm_id": 1408494533, "osm_type": "nodes" }, "geometry": { "type": "Point", "coordinates": [ 100.5047397, 13.7383577 ] } },
{ "type": "Feature", "properties": { "name": "กรมเจ้าท่า", "name:en": "Marine Department", "amenity": "ferry_terminal", "building": null, "port": null, "operator:type": null, "addr:full": null, "addr:city": null, "source": null, "name:th": "กรมเจ้าท่า", "osm_id": 1408498124, "osm_type": "nodes" }, "geometry": { "type": "Point", "coordinates": [ 100.5118793, 13.7324943 ] } },
{ "type": "Feature", "properties": { "name": "ท่าเรือสาทร", "name:en": "Sathorn Pier", "amenity": "ferry_terminal", "building": null, "port": null, "operator:type": null, "addr:full": null, "addr:city": null, "source": null, "name:th": null, "osm_id": 4566970962, "osm_type": "nodes" }, "geometry": { "type": "Point", "coordinates": [ 100.5125661, 13.7183726 ] } },
{ "type": "Feature", "properties": { "name": "ท่าเรือวัดกัลยาณมิตร", "name:en": "Wat Kanlayanamit Pier", "amenity": "ferry_terminal", "building": null, "port": null, "operator:type": null, "addr:full": null, "addr:city": null, "source": null, "name:th": "ท่าเรือวัดกัลยาณมิตร", "osm_id": 2993472311, "osm_type": "nodes" }, "geometry": { "type": "Point", "coordinates": [ 100.4921971, 13.7409626 ] } },
{ "type": "Feature", "properties": { "name": "โรงเรียนพร้อมมิตรพิทยา", "name:en": "Prommitpittaya School", "amenity": "ferry_terminal", "building": null, "port": null, "operator:type": null, "addr:full": null, "addr:city": null, "source": null, "name:th": "โรงเรียนพร้อมมิตรพิทยา", "osm_id": 9758722596, "osm_type": "nodes" }, "geometry": { "type": "Point", "coordinates": [ 100.6558636, 13.7705098 ] } },
{ "type": "Feature", "properties": { "name": "ท่าเรือวัดคลองภูมิ", "name:en": null, "amenity": "ferry_terminal", "building": null, "port": null, "operator:type": null, "addr:full": null, "addr:city": null, "source": null, "name:th": "ท่าเรือวัดคลองภูมิ", "osm_id": 12508852179, "osm_type": "nodes" }, "geometry": { "type": "Point", "coordinates": [ 100.5503944, 13.6800533 ] } },
{ "type": "Feature", "properties": { "name": "Lomprayah Nathon Pier", "name:en": null, "amenity": "ferry_terminal", "building": null, "port": null, "operator:type": null, "addr:full": null, "addr:city": null, "source": "Bing", "name:th": null, "osm_id": 4775993796, "osm_type": "nodes" }, "geometry": { "type": "Point", "coordinates": [ 99.9320403, 9.5364262 ] } },
{ "type": "Feature", "properties": { "name": "พระปิ่นเกล้า", "name:en": "Phra Pinklao Bridge N12", "amenity": "ferry_terminal", "building": null, "port": null, "operator:type": null, "addr:full": null, "addr:city": null, "source": null, "name:th": "พระปิ่นเกล้า", "osm_id": 269347981, "osm_type": "nodes" }, "geometry": { "type": "Point", "coordinates": [ 100.4906911, 13.762992 ] } },
{ "type": "Feature", "properties": { "name": "ท่าช้าง", "name:en": "Tha Chang N9", "amenity": "ferry_terminal", "building": null, "port": null, "operator:type": null, "addr:full": null, "addr:city": null, "source": null, "name:th": "ท่าช้าง", "osm_id": 88122604, "osm_type": "nodes" }, "geometry": { "type": "Point", "coordinates": [ 100.4882707, 13.7525602 ] } },
{ "type": "Feature", "properties": { "name": "ท่าเรืออ่าวปอ", "name:en": "Ao Po Pier", "amenity": "ferry_terminal", "building": null, "port": null, "operator:type": null, "addr:full": null, "addr:city": null, "source": null, "name:th": null, "osm_id": 701552280, "osm_type": "nodes" }, "geometry": { "type": "Point", "coordinates": [ 98.4362597, 8.0593196 ] } },
{ "type": "Feature", "properties": { "name": "ยอดพิมาน", "name:en": "Yodpiman", "amenity": "ferry_terminal", "building": null, "port": null, "operator:type": null, "addr:full": null, "addr:city": null, "source": null, "name:th": null, "osm_id": 269747367, "osm_type": "nodes" }, "geometry": { "type": "Point", "coordinates": [ 100.4946927, 13.7409825 ] } },
{ "type": "Feature", "properties": { "name": "ท่าเรืออัษฎางค์", "name:en": "Atsadang Pier", "amenity": "ferry_terminal", "building": null, "port": null, "operator:type": null, "addr:full": null, "addr:city": null, "source": null, "name:th": null, "osm_id": 1886961381, "osm_type": "nodes" }, "geometry": { "type": "Point", "coordinates": [ 100.4941856, 13.7413396 ] } },
{ "type": "Feature", "properties": { "name": "ราชินี", "name:en": "Rajinee N7", "amenity": "ferry_terminal", "building": null, "port": null, "operator:type": null, "addr:full": null, "addr:city": null, "source": null, "name:th": "ราชินี", "osm_id": 1886961629, "osm_type": "nodes" }, "geometry": { "type": "Point", "coordinates": [ 100.4938532, 13.7416128 ] } },
{ "type": "Feature", "properties": { "name": null, "name:en": null, "amenity": "ferry_terminal", "building": null, "port": null, "operator:type": null, "addr:full": null, "addr:city": null, "source": null, "name:th": null, "osm_id": 12178323789, "osm_type": "nodes" }, "geometry": { "type": "Point", "coordinates": [ 98.5149699, 16.6697529 ] } },
{ "type": "Feature", "properties": { "name": null, "name:en": null, "amenity": "ferry_terminal", "building": null, "port": null, "operator:type": null, "addr:full": null, "addr:city": null, "source": null, "name:th": null, "osm_id": 12491771578, "osm_type": "nodes" }, "geometry": { "type": "Point", "coordinates": [ 98.515416, 16.6697188 ] } },
{ "type": "Feature", "properties": { "name": null, "name:en": null, "amenity": "ferry_terminal", "building": null, "port": null, "operator:type": null, "addr:full": null, "addr:city": null, "source": null, "name:th": null, "osm_id": 12522311030, "osm_type": "nodes" }, "geometry": { "type": "Point", "coordinates": [ 98.5152682, 16.6626385 ] } },
{ "type": "Feature", "properties": { "name": null, "name:en": null, "amenity": "ferry_terminal", "building": null, "port": null, "operator:type": null, "addr:full": null, "addr:city": null, "source": null, "name:th": null, "osm_id": 12522311034, "osm_type": "nodes" }, "geometry": { "type": "Point", "coordinates": [ 98.5153539, 16.6612202 ] } },
{ "type": "Feature", "properties": { "name": "ท่าฉลอง", "name:en": "Chalong Pier", "amenity": "ferry_terminal", "building": null, "port": null, "operator:type": null, "addr:full": null, "addr:city": null, "source": null, "name:th": "ท่าฉลอง", "osm_id": 270986823, "osm_type": "nodes" }, "geometry": { "type": "Point", "coordinates": [ 98.350993, 7.8193895 ] } },
{ "type": "Feature", "properties": { "name": "Laemtong Pier", "name:en": null, "amenity": "ferry_terminal", "building": null, "port": null, "operator:type": null, "addr:full": null, "addr:city": null, "source": null, "name:th": null, "osm_id": 6081036849, "osm_type": "nodes" }, "geometry": { "type": "Point", "coordinates": [ 98.7601114, 7.77749 ] } },
{ "type": "Feature", "properties": { "name": "Rassada Pier", "name:en": "Rassada Pier", "amenity": "ferry_terminal", "building": null, "port": null, "operator:type": null, "addr:full": null, "addr:city": null, "source": null, "name:th": "ท่าเรือ รัษฏา", "osm_id": 260742667, "osm_type": "nodes" }, "geometry": { "type": "Point", "coordinates": [ 98.4147833, 7.8728704 ] } }
]
}
